"storeId","storeName","address1","city","postalCode","countryCode","email","latitude","longitude","storeHours","teaMachineRetailer","teaAnimation","teaRepairCenter"
"664","Boulanger Beynost","Centre Commercial Lerclerc","Beynost","01700","FR","","","","Du lundi au Samedi de 09:30 à 19:30","1","1","0"
"665","Boulanger Saint-Quentin","Parc d'activité commercial RN 29","Saint-Quentin","02100","FR","","","","Du lundi au Samedi - 09:30 à 19:30","0","0","0"
"666","Boulanger Mandelieu-la-Napoule","ZI La Canardière RN 7","Mandelieu-la-Napoule","06210","FR","","","","Du lundi au Samedi - 09:30 à 19:30","1","1","0"
"667","Boulanger Saint-Parres-aux-Tertres","Avenue du Général de Gaulle","Saint-Parres-aux-Tertres","10410","FR","","","","Du lundi au Samedi - 09:30 à 12:30 - 14:00 à 19:30","0","0","0"
"3946","Boulanger La Valentine","traverse de la Montre","Marseille 11e Arrondissement","13011","FR","","","","Du lundi au Samedi - 09:30 à 20:00","1","1","0"
"3948","Boulanger Grand Vitrolles","RN 113","Vitrolles","13127","FR","","","","Du lundi au Samedi - 09:30 à 20:00","0","0","0"
"668","Boulanger Aubagne","Centre Commercial Auchan","Aubagne","13400","FR","","","","Du lundi au Samedi - 09:30 à 20:00","1","1","0"
"3947","Boulanger Plan de Campagne","Zone Commerciale Plan de Campagne","Les Pennes-Mirabeau","13751","FR","","","","Du lundi au Samedi - 10:00 à 20:00","1","1","0"
"670","Boulanger Mondeville","Centre Commercial Carrefour ""Mondeville 2"" (ancien decathlon)","Mondeville","14120","FR","","","","Du lundi au Samedi - 09:45 à 19:45","1","1","0"
"136966","Boulanger Angoulins","ZAC DES ORMEAUX 17690 ANGOULINS","Angoulins","17690","FR","","","","Du lundi au Samedi - 10:00 à 19:30","1","1","0"
"80099","Boulanger Saint-Doulchard","1185 Route d'Orléans","Saint-Doulchard","18230","FR","","","","Du lundi au Samedi - 10:00 à 19:30","0","0","0"
"474482","Boulanger Dijon La Toison d'Or","Centre Commercial la ""Toison d'Or""","Dijon","21000","FR","","","","Du lundi au Samedi - 10:00 à 20:00","0","0","0"
"671","Boulanger Quetigny","21 boulevard du Champ aux Métiers","Quetigny","21800","FR","","","","Du lundi au Samedi - 09:30 à 19:30","0","0","0"
"672","Boulanger Langueux","2 rue Jacques Cartier","Langueux","22360","FR","","","","Du lundi au Samedi - 09:30 à 12:30 - 14:00 à 19:30","0","0","0"
"136914","Boulanger Trélissac","C. Cial La Feuilleraie","Trélissac CEDEX","24750","FR","","","","Du lundi au Samedi - 09:30 à 12:30 - 14:00 à 19:00","0","0","0"
"673","Boulanger Besançon","Rue Guillaume Appolinaire","Besançon","25000","FR","","","","Du lundi au Samedi - 09:30 à 20:00","1","1","0"
"674","Boulanger Valence","Centre Commercial ""Les Couleures""","Valence","26000","FR","","","","Du lundi au Samedi - 09:30 à 19:30","1","1","0"
"227287","Boulanger Brest","105 rue Pierre Jakez Hélias","Guipavas","29490","FR","","","","Du lundi au Samedi - 10:00 à 20:00","1","1","0"
"675","Boulanger Nîmes","155 rue Paul Laurent","Nîmes","30900","FR","","","","Du lundi au Samedi - 09:30 à 20:00","1","1","0"
"3951","Boulanger Portet sur Garonne","Boulevard de l'Europe","Portet-sur-Garonne","31120","FR","","","","Du lundi au Samedi - 09:30 à 20:00","1","1","0"
"227296","Boulanger Saint Orens","1 bis allée des Champs Pinsons","Saint-Orens-de-Gameville","31650","FR","","","","Du lundi au Samedi - 10:00 à 19:30","0","0","0"
"676","Boulanger Colomiers","Rue Marie Curie","Colomiers","31770","FR","","","","Du lundi au Samedi - 09:30 à 19:30","1","1","0"
"681","Boulanger Villenave-d'Ornon","Rue André Bourvil","Villenave-d'Ornon","33140","FR","","","","Du lundi au Samedi - 09:30 à 19:30","1","1","0"
"678","Boulanger Bordeaux","avenue des 40 journaux","Bordeaux","33300","FR","","","","Du lundi au Samedi - 10:00 à 19:30","1","1","0"
"136528","Boulanger Biganos","C. Cial Les Portes du Delta","Biganos","33380","FR","","","","Du lundi au Samedi - 10:00 à 19:30","0","0","0"
"679","Boulanger Libourne","Centre Commercial Carrefour Prés de BORDEAUX","Libourne","33500","FR","","","","Du lundi au Samedi - 10:00 à 12:30 - 14:00 à 19:30","0","0","0"
"680","Boulanger MÉRIGNAC 2 Rue Jacques Anquetil","2 Rue Jacques Anquetil","Mérignac","33700","FR","","","","Du lundi au Samedi - 09:30 à 19:30","0","0","0"
"227297","boulanger Beziers","155 rue Jean Brulier du Vercors","Béziers","34500","FR","","","","Du lundi au Samedi - 09:30 à 19:30","1","1","0"
"474485","Boulanger Rennes","11 Rue de La Visitation","Rennes","35000","FR","","","","Du lundi au Samedi - 10:00 à 19:30","0","0","0"
"682","Boulanger Chantepie","Parc activité rocade sud - Allée de Guerlédan","Chantepie","35135","FR","","","","Du lundi au Samedi - 09:30 à 19:30","0","0","0"
"683","Boulanger Chambray-lès-Tours","108 Avenue du grand Sud","Chambray-lès-Tours","37170","FR","","","","Du lundi au Samedi - 10:00 à 19:30","0","0","0"
"24424","Boulanger SAINT-PIERRE-DES-CORPS Centre Cial Les Atlantes","Centre Cial Les Atlantes","Saint-Pierre-des-Corps","37700","FR","","","","Du lundi au Samedi - 10:00 à 20:00","0","0","0"
"686","Boulanger L'Isle-d'Abeau","10 rue des Sayes","L'Isle-d'Abeau","38080","FR","","","","Du lundi au Samedi - 09:30 à 19:30","1","1","0"
"687","Boulanger Saint-Égrève","2 rue de la Trémouillère","Saint-Égrève","38120","FR","","","","Du lundi au Samedi - 09:30 à 19:30","0","0","0"
"685","Boulanger Échirolles","Centre Commercial Leclerc ""Espace Comboire""","Échirolles","38130","FR","","","","Du lundi au Samedi - 09:30 à 19:30","0","0","0"
"474481","Boulanger Chasse-sur-Rhône","1799 avenue Frédéric Mistral","Chasse-sur-Rhône","38670","FR","","","","Du lundi au Samedi - 09:30 à 19:30","0","0","0"
"688","Boulanger Roanne","Rue Alexandre Raffin","Roanne","42300","FR","","","","Du lundi au Samedi - 09:30 à 19:30","0","0","0"
"689","Boulannger Villars","ZAC de Montravel","Villars","42390","FR","","","","Du lundi au Samedi - 09:30 à 19:30","1","1","0"
"690","Boulanger Nantes","Centre Commercial Leclerc ""Paridis""","Nantes","44300","FR","","","","Du lundi au Samedi - 09:30 à 20:45","0","0","0"
"691","Boulanger Rezé","C.Cial Leclerc ""Atout Sud""","Rezé CEDEX","44406","FR","","","","Du lundi au Samedi - 10:00 à 12:30 - 14:00 à 19:30","0","0","0"
"693","Boulanger Trignac","Centre Commercial Savine face au Mac Donald. et station Total.","Trignac","44570","FR","","","","Du lundi au Samedi - 09:30 à 19:00","0","0","0"
"692","Boulanger Saint-Herblain","C.Cial Leclerc ""Atlantis""","Saint-Herblain","44800","FR","","","","Du lundi au Samedi - 10:00 à 20:00","1","1","0"
"3955","Boulanger Orléans","Rue Marie Ampère","Saran","45770","FR","","","","Du lundi au Samedi - 10:00 à 19:30","0","0","0"
"474480","Boulanger Agen","2 Rue J. Lacroix","Boé","47550","FR","","","","Du lundi au Samedi - 09:30 à 19:30","0","0","0"
"292549","Boulanger Angers-Beaucouzé","ecoparc du buisson","Beaucouzé","49070","FR","","","","Du lundi au Samedi - 10:00 à 20:00","1","1","0"
"695","Boulanger Cholet","24 rue des Pagannes","Cholet","49300","FR","","","","Du lundi au Samedi - 10:00 à 19:00","0","0","0"
"696","Boulanger Cormontreuil","2 avenue des Goisses","Cormontreuil","51350","FR","","","","Du lundi au Samedi - 09:30 à 19:30","0","0","0"
"265400","Boulanger thillois","ZAC de Thillois Nord","Thillois","51370","FR","","","","Du lundi au Samedi - 10:00 à 19:30","0","0","0"
"24420","Boulanger Nancy Frouard","1 rue du Saule Gaillard","Frouard","54390","FR","","","","Du lundi au Samedi - 10:00 à 19:30","0","0","0"
"24421","Boulanger Nancy Vandoeuvre","9 boulevard Barthou","Vandœuvre-lès-Nancy","54512","FR","","","","Du lundi au Samedi - 10:00 à 19:30","1","1","0"
"698","Boulanger Vannes","Espace Kerthomas","Vannes","56000","FR","","","","Du lundi au Samedi - 09:30 à 19:30","0","0","0"
"697","Boulanger Lorient","Zone de Kérulvé - C.Cial Carrefour","Lorient","56100","FR","","","","Du lundi au Samedi - 10:00 à 19:15","0","0","0"
"3959","Boulanger Metz","Avenue Sébastopol","Metz","57070","FR","","","","Du lundi au Samedi - 10:00 à 19:30","0","0","0"
"700","Boulanger Terville","avenue du 14 juillet 1789 ""Linkling 3""","Terville","57180","FR","","","","Du lundi au Samedi - 09:30 à 19:30","1","1","0"
"699","Boulanger Augny","Actisud Z.A.C. d’Augny 2000","Augny","57685","FR","","","","Du lundi au Samedi - 09:30 à 19:30","0","0","0"
"705","Boulanger Leers","1 avenue de l'Europe","Leers","59115","FR","","","","Du lundi au Samedi - 10:00 à 19:30","0","0","0"
"227288","Boulanger Fâches Thumesnil","Rue de l'Egalité Centre Commercial Auchan Fâches","Faches-Thumesnil","59155","FR","","","","Du lundi au Samedi - 10:00 à 20:00","0","0","0"
"707","Boulanger Tourcoing","Centre Commercial Auchan 400 Rue de Roncq","Tourcoing","59200","FR","","","","Du lundi au Samedi - 09:30 à 20:00","1","1","0"
"703","Boulanger Englos","Centre Commercial Englos ""les Géants""","Englos","59320","FR","","","","Du lundi au Samedi - 09:30 à 20:00","1","1","0"
"701","Boulanger Cambrai","Centre commercial Cora","Cambrai","59400","FR","","","","Du lundi au Samedi - 09:30 à 12:30 - 14:00 à 19:30","0","0","0"
"706","Boulanger Petite-Forêt","Centre Commercial Auchan","Petite-Forêt","59494","FR","","","","Du lundi au Samedi - 09:30 à 20:00","1","1","0"
"141","Boulanger Villeneuve d'ascq","1 avenue de l'avenir","Villeneuve-d'Ascq","59650","FR","","","","Du lundi au Samedi - 09:30 à 20:00","1","1","0"
"704","Boulanger Grande-Synthe","Centre Commercial Auchan Flandres Littoral Route de Spycker","Grande-Synthe","59760","FR","","","","Du lundi au Samedi - 09:00 à 20:00","1","1","0"
"710","Boulanger Saint-Maximin","ZAC du bois des fenêtres","Saint-Maximin","60740","FR","","","","Du lundi au Samedi - 09:30 à 20:00","0","0","0"
"709","Boulanger Jaux","Centre Commercial de Jaux Venette 63 rue des Métiers","Jaux","60880","FR","","","","Du lundi au Samedi - 09:30 à 19:30","0","0","0"
"714","Boulanger Saint-Martin-Boulogne","Centre Commercial Auchan R.N. 42","Boulogne-sur-Mer","62200","FR","","","","Du lundi au Samedi - 09:30 à 19:30","0","0","0"
"711","Boulanger Béthune","Centre Commercial Auchan ""la Rotonde"" rue de la rotonde","Béthune","62400","FR","","","","Du lundi au Samedi - 09:30 à 12:30 - 14:00 à 19:30","0","0","0"
"227289","Boulanger saint Omer","Parc commercial Les Rives de l'Aa Zone des frais fonds","Saint-Omer","62507","FR","","","","Du lundi au Samedi - 09:30 à 12:30 - 13:30 à 19:30","0","0","0"
"712","Boulanger Vendin-le-Vieil","Centre Commercial Vendin 2","Vendin-le-Vieil","62880","FR","","","","Du lundi au Samedi - 09:30 à 19:30","0","0","0"
"713","Boulanger Noyelles-Godault","Centre Commercial Auchan R.N. 43","Noyelles-Godault","62950","FR","","","","Du lundi au Samedi - 09:30 à 20:00","0","0","0"
"85608","Boulanger Aubière","Centre Commercial Auchan Plein Sud","Aubière","63170","FR","","","","Du lundi au Samedi - 09:30 à 19:30","1","1","0"
"715","Boulanger Lescar","Rue Flandres-Dunkerque - RN 117","Lescar","64230","FR","","","","Du lundi au Samedi - 09:30 à 19:30","0","0","0"
"474484","Boulanger Perpignan","Centre commercial Porte d'ESPAGNE Le Mas Galté","Perpignan","66000","FR","","","","Du lundi au Samedi - 09:30 à 19:30","1","1","0"
"260018","Boulanger Rivesaltes","Rue Henri Chretien","Rivesaltes","66600","FR","","","","Du lundi au Samedi - 09:30 à 19:30","1","1","0"
"3969","Boulanger Vendenheim","34 Route de Strasbourg","Vendenheim","67550","FR","","","","Du lundi au Samedi - 10:00 à 19:30","0","0","0"
"24422","Boulanger Wittenhiem","Pôle 430 Rue de Nonnenbruch","Wittenheim","68270","FR","","","","Du lundi au Samedi - 09:30 à 19:30","0","0","0"
"3961","Boulanger Les Cordeliers - Lyon","6 place des Cordeliers","Lyon","69002","FR","","","","Du lundi au Samedi - 10:00 à 19:00","1","1","0"
"110508","Boulanger Lyon - Carré de Soie","2 rue Jacquard","Vaulx-en-Velin","69120","FR","","","","Du lundi au Samedi - 10:00 à 20:00","0","0","0"
"717","Boulanger Limonest","Route Nationale 6","Limonest","69760","FR","","","","Du lundi au Samedi - 09:30 à 19:30","1","1","0"
"718","Boulanger Saint-Priest","Centre Commercial Auchan","Saint-Priest","69800","FR","","","","Du lundi au Samedi - 09:30 à 20:00","1","1","0"
"719","Boulanger Mâcon","RN6 Carrefour Georges Pompidou Mâcon sud","Mâcon","71000","FR","","","","Du lundi au Samedi - 09:30 à 19:30","1","1","0"
"66608","Boulanger Chalon-sur-Saône","2 rue René Cassin","Chalon-sur-Saône","71100","FR","","","","Du lundi au Samedi - 09:30 à 19:30","0","0","0"
"720","Boulanger La Chapelle-Saint-Aubin","154 rue Louis Delage","La Chapelle-Saint-Aubin","72650","FR","","","","Du lundi au Samedi - 09:30 à 19:30","0","0","0"
"162309","Boulanger Annemasse","53 route de Thonon","Annemasse","74100","FR","","","","Du lundi au Samedi - 09:30 à 19:30","1","1","0"
"3962","Boulanger Annecy Seynod","Centre commercial Arcal'Oz","Seynod","74600","FR","","","","Du lundi au Samedi - 09:30 à 19:30","0","0","0"
"264686","Boulanger Montivilliers","Avenue du Maréchal Foch","Montivilliers","76290","FR","","","","Du lundi au Samedi - 10:00 à 19:30","0","0","0"
"181770","Boulanger Barentin","R.N. 15","Barentin","76360","FR","","","","Du lundi au Samedi - 09:30 à 19:30","1","1","0"
"9730","Boulanger Montévrain","Le Clos du Chêne Avenue de la ferme Briarde","Montévrain","77144","FR","","","","Du lundi au Samedi - 10:00 à 19:30","0","0","0"
"722","Boulanger Lognes","Allée des palombes","Lognes","77185","FR","","","","Du lundi au Samedi - 10:00 à 20:00","1","1","0"
"723","Boulanger Cesson","10 Rue Maisonément","Cesson","77240","FR","","","","Du lundi au Samedi - 10:00 à 19:30","1","1","0"
"294316","Boulanger Pontault-Combault","Centre Commercial ""Les 4 Chênes"" - RN4","Pontault-Combault","77340","FR","","","","Du lundi au Samedi - 10:00 à 20:00","0","0","0"
"721","Boulanger Claye-Souilly","ZA Les Sablons - Rue Jean Monnet","Claye-Souilly","77410","FR","","","","Du lundi au Samedi - 10:00 à 19:30","1","1","0"
"725","Boulanger Buchelay","6 Rue de l'Aveyron ZAC des Closeaux Face à Leroy Merlin","Buchelay","78200","FR","","","","Du lundi au Samedi - 10:00 à 19:30","0","0","0"
"135800","Boulanger Coignières","Centre Commercial Les portes de Chevreuse","Coignières","78310","FR","","","","Du lundi au Samedi - 10:00 à 20:00","1","1","0"
"724","Boulanger Les Clayes-sous-Bois","Centre Commercial Alpha Park Avenue Henri Barbusse","Les Clayes-sous-Bois","78340","FR","","","","Du lundi au Samedi - 10:00 à 20:00","1","1","0"
"726","Boulanger Orgeval","Chemin rural Route des 40 sous","Orgeval","78630","FR","","","","Du lundi au Samedi - 10:00 à 19:30","1","1","0"
"474483","Boulanger Niort","1 Rue Jean Baptiste Colbert","Niort","79000","FR","","","","Du lundi au Samedi - 10:00 à 19:30","0","0","0"
"727","Boulanger Amiens","29 avenue de grèce","Amiens","80094","FR","","","","Du lundi au Samedi - 09:30 à 19:30","1","1","0"
"728","Boulanger Montauban","Zone Futuropole Aussonne","Montauban","82000","FR","","","","Du lundi au Samedi - 09:30 à 19:30","0","0","0"
"227298","Boulanger Toulon","156 Avenue De Draguignan","La Garde","83130","FR","","","","Du lundi au Samedi - 09:30 à 19:30","1","1","0"
"357939","Boulanger Puget-sur-Argens","ZA La Tuilière","Puget-sur-Argens","83480","FR","","","","Du lundi au Samedi - 09:30 à 19:30","1","1","0"
"729","Boulanger Le Pontet","Centre Commercial Auchan ""Le Pontet""","Le Pontet","84130","FR","","","","Du lundi au Samedi - 09:30 à 20:00","1","1","0"
"730","Boulanger La Roche sur Yon","41 rue Yitzhac Rabin","La Roche-sur-Yon","85000","FR","","","","Du lundi au Samedi - 09:30 à 19:30","0","0","0"
"474486","Boulanger Poitiers","Avenue du 8 Mai 1945","Poitiers","86000","FR","","","","Du lundi au Samedi - 10:00 à 19:30","1","1","0"
"731","Boulanger Chasseneuil-du-Poitou","12 Bis Allée du Haut Poitou","Chasseneuil-du-Poitou","86360","FR","","","","Du lundi au Samedi - 10:00 à 19:30","0","0","0"
"178012","Boulanger Limoges","30 rue Amédée Gordini","Limoges","87000","FR","","","","Du lundi au Samedi - 09:30 à 19:30","1","1","0"
"257667","Boulanger - Auxerre","Rue Bronislaw Geremek","Auxerre","89000","FR","","","","Du lundi au Samedi - 09:30 à 12:30 - 14:00 à 19:30","0","0","0"
"732","Boulanger Andelnans","3 route de Montbéliard","Andelnans","90400","FR","","","","Du lundi au Samedi - 09:30 à 12:00 - 14:00 à 19:00","0","0","0"
"734","Boulanger Massy","Centre Commercial -X % - CORA (Voie de Briis)","Massy","91300","FR","","","","Du lundi au Samedi - 10:00 à 20:00","0","0","0"
"735","Boulanger Sainte-Geneviève-des-Bois","17 rue des Petits Champs","Sainte-Geneviève-des-Bois","91700","FR","","","","Du lundi au Samedi - 10:00 à 19:30","1","1","0"
"736","Boulanger Gennevillliers","112 Avenue du Général de Gaulle","Gennevilliers","92230","FR","","","","Du lundi au Samedi - 09:30 à 20:00","1","1","0"
"474487","Boulanger Rosny-sous-Bois","16 rue de Lisbonne","Rosny-sous-Bois","93110","FR","","","","Du lundi au Samedi - 10:00 à 20:00","1","1","0"
"227292","Boulanger Auberviliers","23 rue Madeleine Vionnet","Aubervilliers","93300","FR","","","","Du lundi au Samedi - 10:00 à 20:00","1","1","0"
"227293","Boulanger créteil","97 Avenue du Maréchal Foch","Créteil","94000","FR","","","","Du lundi au Samedi - 10:00 à 20:00","0","0","0"
"24427","Boulanger Ivry Sur Seine","30 Bd Paul Vaillant Couturier","Ivry-sur-Seine","94200","FR","","","","Du lundi au Samedi - 10:00 à 20:00","0","0","0"
"738","Boulanger Thiais","39 rue de la résistance","Thiais","94320","FR","","","","Du lundi au Samedi - 10:00 à 20:00","1","1","0"
"227299","Boulanger Villiers sur Marne","1 bis boulevard Jean Monnet ZAC des Portes de Villiers 94350 Villiers sur Marne","Villiers-sur-Marne","94350","FR","","","","Du lundi au Samedi - 10:00 à 20:00","0","0","0"
"264689","Boulanger Sarcelles","Centre Commercial MY PLACE Avenue de la division Leclerc","Sarcelles","95200","FR","","","","Du lundi au Samedi - 10:00 à 20:30","1","1","0"
"740","Boulanger Montigny-lès-Cormeilles","Bd Victor Bordier face à Leroy Merlin","Montigny-lès-Cormeilles","95370","FR","","","","Du lundi au Samedi - 09:30 à 20:00","1","1","0"
"741","Boulanger Osny","Centre Commercial de L'Oseraie","Osny","95520","FR","","","","Du lundi au Samedi - 10:00 à 20:00","0","0","0"
"3964","Boulanger Eragny sur Oise","1 Rue du Bas Noyer","Éragny","95610","FR","","","","Du lundi au Samedi - 10:00 à 20:00","1","1","0"
"33700","Boulanger Mérignac","2 rue Jacques Anquetil","Mérignac","33700","FR","","","","Du lundi au Samedi - 09:30 à 19:30","1","1","0"
"354046","Conforama MONTLUCON - DOMERAT","Terre Neuve","Domérat","03410","FR","","","","Du lundi au Samedi - 10:00 à 12:00 - 14:00 à 19:00","0","0","0"
"903","Conforama AGEN","ALLEE DE RIOLS","Agen","47000","FR","","","","Du lundi au Samedi - 09:30 à 12:30 - 14:00 à 19:00","0","0","0"
"893","Conforama ALENCON - CONDE SUR SARTHE","Rue de la brebiette","Condé-sur-Sarthe","61250","FR","","","","Du lundi au Samedi - 10:00 à 12:00 - 14:00 à 19:00","0","0","0"
"827","Conforama ALES","ROUTE DE NIMES","ALES","30100","FR","","","","Du lundi au Samedi - 09:30 à 12:00 - 14:00 à 19:00","0","0","0"
"773","Conforama AMIENS","ZAC DE LA VALLEE ST LADRE","AMIENS","80000","FR","","","","Du lundi au Samedi - 09:30 à 12:30 - 14:00 à 19:30","0","0","0"
"354014","Conforama ANGERS","Centre commercial CARREFOUR","Angers","49100","FR","","","","Du lundi au Samedi - 10:00 à 12:30 - 14:00 à 19:30","0","0","0"
"768","Conforama ANGOULEME - SOYAUX","AVENUE DU GENERAL DE GAULLE","Soyaux","16800","FR","","","","Du lundi au Samedi - 09:30 à 12:00 - 14:00 à 19:00","0","0","0"
"743","Conforama ANNECY - EPAGNY","331 RUE DE LA MANDALLAZ","Épagny","74330","FR","","","","Du lundi au Samedi - 09:30 à 12:00 - 14:00 à 19:00","0","0","0"
"758","Conforama ANTIBES","2727 CHEMIN DE ST CLAUDE","ANTIBES","06600","FR","","","","Du lundi au Samedi - 10:00 à 12:30 - 14:00 à 19:30","0","0","0"
"790","Conforama ARRAS","LIEU DIT ""LES HAUTES FONTAINES ""","ARRAS","62000","FR","","","","Du lundi au Samedi - 10:00 à 12:00 - 14:00 à 19:30","0","0","0"
"759","Conforama AUBAGNE","CENTRE CCIAL","Aubagne","13400","FR","","","","Du lundi au Samedi - 10:00 à 19:30","0","0","0"
"805","Conforama AUCH","ZAC DE CLARAC","Auch","32000","FR","","","","Du lundi au Samedi - 09:30 à 12:00 - 14:00 à 19:00","0","0","0"
"474488","Conforama Aulnay-sous-Bois","2-4 rue Léon Jouhaux","Aulnay-sous-Bois","93600","FR","","","","Du lundi au Samedi11:00 à 19:00","0","0","0"
"898","Conforama AURILLAC","AVENUE CHARLES DE GAULLE","AURILLAC","15000","FR","","","","Du lundi au Samedi - 09:30 à 12:00 - 14:00 à 19:00","0","0","0"
"885","Conforama AUXERRE","AVENUE DE WORMS","Auxerre","89000","FR","","","","Du lundi au Samedi - 09:30 à 12:00 - 14:00 à 19:00","0","0","0"
"886","Conforama AVALLON","Z.A.C. DU BOIS ST LADRE","AVALLON","89200","FR","","","","Du lundi au Samedi - 09:30 à 12:00 - 14:00 à 19:00","0","0","0"
"760","Conforama AVIGNON - SORGUES","CENTRE COMMERCIAL AVIGNON NORD","Sorgues","84700","FR","","","","Du lundi au Samedi - 09:30 à 12:30 - 14:00 à 19:30","0","0","0"
"894","Conforama AVRANCHES - ST MARTIN DES CHAMPS","PARC D'ACTIVITE DE LA BAIE","Saint-Martin-des-Champs","50300","FR","","","","Du lundi au Samedi - 10:00 à 12:00 - 14:00 à 19:00","0","0","0"
"806","Conforama BALMA","1 RUE LE CORBUSIER","BALMA","31130","FR","","","","Du lundi au Samedi - 10:00 à 12:00 - 14:00 à 19:00","0","0","0"
"135058","Conforama BASTIA - FURIANI","Centre commercial La Rocade","Bastia","20200","FR","","","","Du lundi au Samedi - 09:30 à 12:00 - 14:15 à 19:15","1","1","0"
"774","Conforama BEAUVAIS","RUE PIERRE ET MARIE CURIE","Beauvais","60000","FR","","","","Du lundi au Samedi - 09:30 à 12:00 - 14:00 à 19:30","0","0","0"
"905","Conforama BEGLES","Rue des Frères Lumières","BEGLES","33130","FR","","","","Du lundi au Samedi - 10:00 à 19:30","0","0","0"
"906","Conforama BERGERAC","ROUTE DE BORDEAUX","BERGERAC","24100","FR","","","","Du lundi au Samedi - 09:30 à 12:00 - 14:00 à 19:00","0","0","0"
"859","Conforama BESANCON","ZONE CCIALE CHATEAUFARINE","BESANCON","25000","FR","","","","Du lundi au Samedi - 09:30 à 12:00 - 14:00 à 19:00","0","0","0"
"354060","Conforama BETHUNE - BRUAY","2405 Av de la Libération","Bruay-la-Buissière","62700","FR","","","","Du lundi au Samedi - 10:00 à 12:00 - 14:00 à 19:30","0","0","0"
"828","Conforama BEZIERS","CENTRE COMMERCIAL BEZIERS II","BEZIERS","34500","FR","","","","Du lundi au Samedi - 09:30 à 12:00 - 14:00 à 19:00","0","0","0"
"907","Conforama BIGANOS","RUE GUSTAVE EIFFEL","BIGANOS","33380","FR","","","","Du lundi au Samedi - 10:00 à 12:30 - 14:00 à 19:30","0","0","0"
"354103","Conforama BLOIS - VILLEBAROU","Centre Commercial Blois 2","Villebarou","41000","FR","","","","Du lundi au Samedi - 10:00 à 12:00 - 14:00 à 19:00","0","0","0"
"354022","Conforama BONDY","53 avenue Galliéni","Bondy","93140","FR","","","","Du lundi au Samedi - 10:00 à 19:00","0","0","0"
"908","Conforama BORDEAUX","RUE DU PROFESSEUR DARGET","BORDEAUX","33000","FR","","","","Du lundi au Samedi - 10:00 à 19:30","0","0","0"
"744","Conforama BOURG EN BRESSE","2 BIS AVENUE PABLO PICASSO","Bourg-en-Bresse","01000","FR","","","","Du lundi au Samedi - 09:00 à 12:00 - 14:00 à 19:00","0","0","0"
"871","Conforama BOURGES - ST GERMAIN DU PUY","ROUTE DE LA CHARITE","Saint-Germain-du-Puy","18390","FR","","","","Du lundi au Samedi - 10:00 à 12:00 - 14:00 à 19:00","0","0","0"
"878","Conforama BREST","ZI DE KERGARADEC","Brest","29200","FR","","","","Du lundi au Samedi - 09:30 à 12:00 - 14:00 à 19:30","0","0","0"
"824","Conforama BRIVE LA GAILLARDE","88 AVENUE KENNEDY","BRIVE LA GAILLARDE","19100","FR","","","","Du lundi au Samedi - 09:30 à 12:00 - 14:00 à 19:00","0","0","0"
"354072","Conforama CAEN - MONDEVILLE","Centre commercial Mondeville 2","Mondeville","14120","FR","","","","Du lundi au Samedi - 09:45 à 19:30","1","1","0"
"807","Conforama CAHORS","AVENUE MARYSE BASTIE","CAHORS","46000","FR","","","","Du lundi au Samedi - 09:30 à 12:00 - 14:00 à 19:00","0","0","0"
"793","Conforama CALAIS - TRANSMANCHE","C.C. La Française","Coquelles","62231","FR","","","","Du lundi au Samedi - 10:00 à 12:00 - 14:00 à 19:30","0","0","0"
"745","Conforama CALUIRE ET CUIRE","6/10 MONTEE DES SOLDATS","Caluire-et-Cuire","69300","FR","","","","Du lundi au Samedi - 10:00 à 12:00 - 14:00 à 19:30","0","0","0"
"761","Conforama CANNES LA BOCCA","169 AVENUE FRANCIS TONNER","CANNES LA BOCCA","06150","FR","","","","Du lundi au Samedi - 09:30 à 12:30 - 14:30 à 19:00","0","0","0"
"829","Conforama CARCASSONNE","ZAE LA FERRAUDIERE II","CARCASSONNE","11000","FR","","","","Du lundi au Samedi - 09:30 à 12:00 - 14:00 à 19:00","0","0","0"
"808","Conforama CASTRES","142 RTE DE TOULOUSE","CASTRES","81100","FR","","","","Du lundi au Samedi - 09:30 à 12:00 - 14:00 à 19:00","0","0","0"
"135463","Conforama CHALLANS","Route de Nantes","CHALLANS","85300","FR","","","","Du lundi au Samedi - 09:15 à 12:15 - 14:15 à 19:15","0","0","0"
"887","Conforama CHALON SUR SAONE","RUE POILUS D'ORIENT","CHALON SUR SAONE","71100","FR","","","","Du lundi au Samedi - 09:30 à 19:30","0","0","0"
"865","Conforama CHALONS EN CHAMPAGNE - ST MEMMIE","ZAC DE VOITRELLE","Saint-Memmie","51470","FR","","","","Du lundi au Samedi - 10:00 à 12:00 - 14:00 à 19:00","0","0","0"
"877","Conforama CHAMBRAY LES TOURS","37 AVENUE GRAND SUD","Chambray-lès-Tours","37170","FR","","","","Du lundi au Samedi - 10:00 à 12:15 - 14:15 à 19:30","0","0","0"
"747","Conforama CHAMPAGNE AU MONT D'OR","27 AVENUE DU GENERAL DE GAULLE","Champagne-au-Mont-d'Or","69410","FR","","","","Du lundi au Samedi - 10:00 à 12:00 - 14:00 à 19:30","0","0","0"
"751","Conforama CHARANCIEU LES ABRETS","30 ROUTE NATIONALE 75","CHARANCIEU LES ABRETS","38490","FR","","","","Du lundi au Samedi - 09:30 à 12:00 - 14:00 à 19:00","0","0","0"
"866","Conforama CHARLEVILLE MEZIERES","RUE J. ANDRE","Charleville-Mézières","08000","FR","","","","Du lundi au Samedi - 09:30 à 12:00 - 14:00 à 19:30","0","0","0"
"872","Conforama CHARTRES - BARJOUVILLE","34 RUE DES PIERRES MISSIGAULT","Barjouville","28630","FR","","","","Du lundi au Samedi - 10:00 à 12:00 - 14:00 à 19:00","0","0","0"
"748","Conforama CHASSE SUR RHONE RUE FREDERIC MISTRAL","RUE FREDERIC MISTRAL","CHASSE SUR RHONE","38670","FR","","","","Du lundi au Samedi - 09:30 à 12:00 - 14:00 à 19:00","0","0","0"
"771","Conforama CHASSENEUIL DU POITOU","LES PORTES DU FUTUR","CHASSENEUIL DU POITOU","86360","FR","","","","Du lundi au Samedi - 10:00 à 12:30 - 14:00 à 19:30","0","0","0"
"775","Conforama CHÂTEAU THIERRY","RUE GUSTAVE EIFFEL","CHÂTEAU THIERRY","02400","FR","","","","Du lundi au Samedi - 10:00 à 12:00 - 14:00 à 19:00","0","0","0"
"873","Conforama CHATEAUROUX - ST MAUR","AVENUE D'OCCITANIE","Saint-Maur","36250","FR","","","","Du lundi au Samedi - 09:30 à 12:00 - 14:00 à 19:30","0","0","0"
"354036","Conforama CHATELLERAULT","ZA La Désirée","Châtellerault","86100","FR","","","","Du lundi au Samedi - 10:00 à 12:00 - 14:00 à 19:00","0","0","0"
"354038","Conforama CHELLES","115 avenue du Gendarme Castermant","Chelles","77500","FR","","","","Du lundi au Samedi - 10:00 à 12:30 - 14:00 à 19:30","0","0","0"
"896","Conforama CHERBOURG - LA GLACERIE","RN 13","La Glacerie","50470","FR","","","","Du lundi au Samedi - 09:30 à 12:00 - 14:00 à 19:30","0","0","0"
"782","Conforama CHOLET","AVENUE EDMOND MICHELET","Cholet","49300","FR","","","","Du lundi au Samedi - 10:00 à 12:00 - 14:00 à 19:30","0","0","0"
"899","Conforama CLERMONT FERRAND","ZAC DE LA PARDIEU","Clermont-Ferrand","63000","FR","","","","Du lundi au Samedi - 10:00 à 19:30","0","0","0"
"749","Conforama CLUSES","ZONE DE L'AUTOPORT","CLUSES","74300","FR","","","","Du lundi au Samedi - 09:30 à 12:00 - 14:00 à 19:00","0","0","0"
"135060","Conforama COIGNIERES","COIGNIERES - PARC D'ACTIVITE COMMERCIALE","Coignières","78310","FR","","","","Du lundi au Samedi - 10:00 à 20:00","0","0","0"
"917","Conforama COLMAR","Z.I. NORD","COLMAR","68000","FR","","","","Du lundi au Samedi - 09:30 à 12:00 - 14:00 à 19:30","0","0","0"
"835","Conforama COLOMBES","357/359 RUE D'ESTIENNES D'ORVES","COLOMBES","92700","FR","","","","Du lundi au Samedi - 10:00 à 19:30","0","0","0"
"809","Conforama COLOMIERS","7 AVENUE ANDRE MARIE AMPERE","Colomiers","31770","FR","","","","Du lundi au Samedi - 10:00 à 12:30 - 14:00 à 19:15","0","0","0"
"776","Conforama COMPIEGNE","CENTRE COMMERCIAL VENETTE","COMPIEGNE","60200","FR","","","","Du lundi au Samedi - 09:30 à 19:30","0","0","0"
"354044","Conforama COSNE SUR LOIRE","RN 7 Les grands champs","Cosne-Cours-sur-Loire","58200","FR","","","","Du lundi au Samedi - 09:30 à 12:00 - 14:00 à 19:00","0","0","0"
"777","Conforama CREIL - ST MAXIMIN","235 RUE DES JACOBINS","Saint-Maximin","60740","FR","","","","Du lundi au Samedi - 10:00 à 19:30","0","0","0"
"854","Conforama DIEPPE","ZONE COMMERCIALE VAL DRUEL","DIEPPE","76200","FR","","","","Du lundi au Samedi - 10:00 à 12:00 - 14:00 à 19:30","0","0","0"
"888","Conforama DIJON - QUETIGNY LES DIJON","BOULEVARD DE LEUROPE","Quetigny","21800","FR","","","","Du lundi au Samedi - 09:30 à 12:00 - 14:00 à 19:30","0","0","0"
"794","Conforama DOUAI","BOULEVARD BREGUET","DOUAI","59500","FR","","","","Du lundi au Samedi - 10:00 à 12:30 - 14:00 à 19:30","0","0","0"
"874","Conforama DREUX","ZI Nord ""Les Coralines""","DREUX","28100","FR","","","","Du lundi au Samedi - 09:30 à 12:00 - 14:00 à 19:00","0","0","0"
"795","Conforama DUNKERQUE - ST POL SUR MER","C.C. JARDINS","Saint-Pol-sur-Mer","59430","FR","","","","Du lundi au Samedi - 09:30 à 12:00 - 14:00 à 19:30","0","0","0"
"796","Conforama ENGLOS","C. CCIAL ENGLOS LES GEANTS","Englos","59320","FR","","","","Du lundi au Samedi - 09:30 à 20:00","0","0","0"
"814","Conforama ESTANCARDON","ZAC DES LANDES","ESTANCARDON","31800","FR","","","","Du lundi au Samedi - 09:30 à 12:00 - 14:00 à 19:00","0","0","0"
"354050","Conforama EVREUX","Rue du Luxembourg","Évreux","27000","FR","","","","Du lundi au Samedi - 10:00 à 12:15 - 14:00 à 19:15","0","0","0"
"897","Conforama FLERS","ZA DU CHAMPS DE COURSES","FLERS","61100","FR","","","","Du lundi au Samedi - 09:30 à 12:00 - 14:00 à 19:00","0","0","0"
"836","Conforama FLEURY MEROGIS","ZI DE LA CROIX BLANCHE","FLEURY MEROGIS","91700","FR","","","","Du lundi au Samedi - 10:00 à 19:30","0","0","0"
"762","Conforama FREJUS - PUGET SUR ARGENS","CENTRE COMMERCIAL","Puget-sur-Argens","83480","FR","","","","Du lundi au Samedi - 09:30 à 19:00","0","0","0"
"837","Conforama GARGES","AVENUE DE STALINGRAD","Garges-lès-Gonesse","95140","FR","","","","Du lundi au Samedi - 10:00 à 12:30 - 14:00 à 19:30","0","0","0"
"919","Conforama GEISPOLSHEIM","CENTRE CCIAL LA VIGIE","GEISPOLSHEIM","67118","FR","","","","Du lundi au Samedi - 09:30 à 19:30","0","0","0"
"742","Conforama GILLY SUR ISERE","ZA LE GRAND PRE","GILLY SUR ISERE","73200","FR","","","","Du lundi au Samedi - 10:00 à 12:00 - 14:00 à 19:00","0","0","0"
"452480","Conforama GONDREVILLE","3 Route Nationale 4","Gondreville","54840","FR","","","","Du lundi au Samedi - 09:30 à 12:00 - 14:00 à 19:00","0","0","0"
"750","Conforama GRENOBLE - ECHIROLLES","64 GRAND PLACE","Échirolles","38130","FR","","","","Du lundi au Samedi - 10:00 à 20:00","0","0","0"
"838","Conforama HERBLAY","RUE DES COMBATTANTS DE LA RESIST","Herblay","95220","FR","","","","Du lundi au Samedi - 10:00 à 12:30 - 14:30 à 19:30","0","0","0"
"755","Conforama L'ETRAT","GRANGENEUVE","L'ETRAT","42580","FR","","","","Du lundi au Samedi - 09:30 à 19:30","0","0","0"
"783","Conforama LA ROCHE SUR YON","Z.I NORD RUE GAY LUSSAC","La Roche-sur-Yon","85000","FR","","","","Du lundi au Samedi - 09:45 à 12:30 - 14:00 à 19:15","0","0","0"
"257690","Conforama LANNION","AVENUE DE LA RESISTANCE","LANNION","22300","FR","","","","Du lundi au Samedi - 10:00 à 12:00 - 14:00 à 19:00","0","0","0"
"778","Conforama LAON","AVENUE GEORGES POMPIDOU","LAON","02000","FR","","","","Du lundi au Samedi - 10:00 à 12:00 - 14:00 à 19:00","0","0","0"
"354061","Conforama LAVAL","ZA Les Bozées","Laval","53000","FR","","","","Du lundi au Samedi - 10:00 à 12:00 - 14:00 à 19:00","0","0","0"
"856","Conforama LE HAVRE - GONFREVILLE L'ORCHER","PARC DE L'ESTUAIRE","Gainneville","76700","FR","","","","Du lundi au Samedi - 10:00 à 12:00 - 14:00 à 19:30","0","0","0"
"354056","Conforama LE MANS - LA CHAPELLE ST AUBIN","RUE LOUIS DELAGE","La Chapelle-Saint-Aubin","72650","FR","","","","Du lundi au Samedi - 09:30 à 12:30 - 14:00 à 19:30","0","0","0"
"797","Conforama LEERS - LYS LES LANNOY","CENTRE COMMERCIAL","Lys-lez-Lannoy","59390","FR","","","","Du lundi au Samedi - 10:00 à 12:00 - 14:00 à 19:30","0","0","0"
"798","Conforama LENS - VENDIN LE VIEL","ROUTE DE LA BASEE","Vendin-le-Vieil","62880","FR","","","","Du lundi au Samedi - 09:30 à 12:00 - 14:00 à 19:30","0","0","0"
"840","Conforama LES ULIS","AVENUE DU CAP HORN","LES ULIS","91940","FR","","","","Du lundi au Samedi - 10:00 à 12:30 - 14:30 à 19:30","0","0","0"
"825","Conforama LIMOGES","CENTRE COMMERCIAL DE BEAUBREUIL","LIMOGES","87100","FR","","","","Du lundi au Samedi - 10:00 à 19:30","0","0","0"
"135462","Conforama LONGWY - MONT ST MARTIN","ZAC des 3 Frontières","Mont-Saint-Martin","54350","FR","","","","Du lundi au Samedi - 10:00 à 12:00 - 14:00 à 19:00","0","0","0"
"135059","Conforama LONS LE SAUNIER","CENTRE COMMERCIAL LES SALINES","LONS LE SAUNIER","39570","FR","","","","Du lundi au Samedi - 09:00 à 12:00 - 14:00 à 19:00","0","0","0"
"879","Conforama LORIENT","Z.I DE KERYADO","LORIENT","56100","FR","","","","Du lundi au Samedi - 09:30 à 12:00 - 14:00 à 19:00","0","0","0"
"799","Conforama LOUVROIL","RUE JULES GALLOIS","LOUVROIL","59720","FR","","","","Du lundi au Samedi - 09:30 à 12:00 - 14:00 à 19:30","0","0","0"
"354065","Conforama LUNEVILLE","2 avenue de la Libération","Lunéville","54300","FR","","","","Du lundi au Samedi - 09:30 à 12:00 - 14:00 à 19:00","0","0","0"
"889","Conforama MACON - SANCE LES MACON","32 RUE DU 19 MARS 62","Sancé","71000","FR","","","","Du lundi au Samedi - 09:30 à 12:00 - 14:00 à 19:00","0","0","0"
"354066","Conforama MANOSQUE","Centre commercial Pimarlet","Manosque","04100","FR","","","","Du lundi au Samedi - 10:00 à 12:30 - 14:00 à 19:00","0","0","0"
"910","Conforama MARMANDE","ROUTE DE TONNEINS","Marmande","47200","FR","","","","Du lundi au Samedi - 09:30 à 12:00 - 14:00 à 19:00","0","0","0"
"764","Conforama MARTIGUES - SAINT MITRE LES REMPARTS","ZA DES ETANGS","Saint-Mitre-les-Remparts","13920","FR","","","","Du lundi au Samedi - 09:30 à 12:00 - 14:00 à 19:00","0","0","0"
"842","Conforama MELUN","Centre CCIAL du Champ de Foire","Melun","77000","FR","","","","Du lundi au Samedi - 10:00 à 19:30","0","0","0"
"354069","Conforama MENTON","43 route de Sospel","Menton","06500","FR","","","","Du lundi au Samedi - 09:30 à 12:00 - 14:30 à 19:00","0","0","0"
"911","Conforama MERIGNAC","2 rue Carpentier","MERIGNAC","33700","FR","","","","Du lundi au Samedi - 10:00 à 19:30","0","0","0"
"819","Conforama METZ - ARS SUR MOSELLE","RN 57 - JOUY AUX ARCHES","Ancy-sur-Moselle","57130","FR","","","","Du lundi au Samedi - 09:30 à 12:00 - 14:00 à 19:00","0","0","0"
"474489","Conforama Millau","Centre Commercial GÉANT CASINO","Millau","12100","FR","","","","Du lundi au Samedi - 09:30 à 12:00 - 14:00 à 19:00","0","0","0"
"354070","Conforama MONDELANGE","1 rue Brousse","Mondelange","57300","FR","","","","Du lundi au Samedi - 09:30 à 12:00 - 14:00 à 19:00","0","0","0"
"912","Conforama MONT DE MARSAN","2 ROND POINT ALINE CALLIATTE","MONT DE MARSAN","40000","FR","","","","Du lundi au Samedi - 09:30 à 12:00 - 14:00 à 19:00","0","0","0"
"354104","Conforama MONTARGIS - VILLEMANDEUR","18 Rue des Frères Lumière","Villemandeur","45700","FR","","","","Du lundi au Samedi - 10:00 à 12:00 - 14:00 à 19:00","0","0","0"
"354073","Conforama MONTAUBAN","609 route de Nord","Montauban","82000","FR","","","","Du lundi au Samedi - 09:30 à 12:00 - 14:00 à 19:00","0","0","0"
"890","Conforama MONTCEAU LES MINES","Z.A. SAINTE ELISABETH","MONTCEAU LES MINES","71300","FR","","","","Du lundi au Samedi - 09:30 à 12:00 - 14:00 à 19:00","0","0","0"
"354074","Conforama MONTÉLIMAR","RN 7","Montélimar","26200","FR","","","","Du lundi au Samedi - 09:30 à 12:00 - 14:00 à 19:00","0","0","0"
"830","Conforama MONTPELLIER - LATTES","CENTRE COMMERCIAL GRAND SUD","Lattes","34970","FR","","","","Du lundi au Samedi - 09:30 à 19:30","0","0","0"
"257691","Conforama MORLAIX - ST MARTIN DES CHAMPS","Zone Artisanale Binigou","Saint-Martin-des-Champs","29600","FR","","","","Du lundi au Samedi - 09:30 à 12:00 - 14:00 à 19:00","0","0","0"
"820","Conforama Morsbach - Forbach","CENTRE COMMERCIAL DE L'EUROPE","Morsbach","57600","FR","","","","Du lundi au Samedi - 09:30 à 12:00 - 14:00 à 19:00","0","0","0"
"354076","Conforama MOULINS","161 route de Lyon - RN7","Moulins","03000","FR","","","","Du lundi au Samedi - 09:30 à 12:00 - 14:00 à 19:00","0","0","0"
"918","Conforama MULHOUSE - WITTENHEIM","100 RUE DE SOULTZ","Wittenheim","68270","FR","","","","Du lundi au Samedi - 09:30 à 12:00 - 14:00 à 19:30","0","0","0"
"821","Conforama NANCY","6 RUE MARCEL BROT","Nancy","54000","FR","","","","Du lundi au Samedi - 10:00 à 12:00 - 14:00 à 19:30","0","0","0"
"354051","Conforama NANCY 2 - FLEVILLE","4 rue Jacqueline Auriol","Fléville-devant-Nancy","54710","FR","","","","Du lundi au Samedi - 10:00 à 19:00","0","0","0"
"786","Conforama NANTES - ORVAULT","250 ROUTE DE VANNES","Orvault","44700","FR","","","","Du lundi au Samedi - 10:00 à 12:30 - 14:00 à 19:30","0","0","0"
"841","Conforama NANTEUIL LES MEAUX","ZAC DE LA FOULEE","NANTEUIL LES MEAUX","77100","FR","","","","Du lundi au Samedi - 10:00 à 12:30 - 14:00 à 19:30","0","0","0"
"831","Conforama NARBONNE","Z.I. PLAISANCE","NARBONNE","11100","FR","","","","Du lundi au Samedi - 09:30 à 12:00 - 14:00 à 19:00","0","0","0"
"891","Conforama NEVERS - VARENNES VAUZELLES","RN 7 - ROUTE DE PARIS","Varennes-Vauzelles","58640","FR","","","","Du lundi au Samedi - 09:30 à 12:00 - 14:00 à 19:00","0","0","0"
"765","Conforama NICE","CENTRE COMMERCIAL NICE TNL","NICE","06300","FR","","","","Du lundi au Samedi - 09:30 à 20:00","1","1","0"
"832","Conforama NIMES","299 COURS JEAN MONNET","Nîmes","30000","FR","","","","Du lundi au Samedi - 09:30 à 19:30","0","0","0"
"770","Conforama NIORT","ESPACE CCIAL MENDES FRANCE","Niort","79010","FR","","","","Du lundi au Samedi - 10:00 à 12:30 - 14:00 à 19:30","0","0","0"
"474490","Conforama Orange","Route d'Avignon","Orange","84100","FR","","","","Du lundi au Samedi - 10:00 à 12:00 - 14:00 à 19:00","0","0","0"
"843","Conforama ORGEVAL","ROUTE NATIONALE 13","ORGEVAL","78630","FR","","","","Du lundi au Samedi - 10:00 à 19:30","0","0","0"
"876","Conforama ORLEANS - SARAN","153 RUE BENJAMIN FRANKLIN","Saran","45770","FR","","","","Du lundi au Samedi - 09:30 à 12:00 - 14:00 à 19:30","0","0","0"
"844","Conforama ORMESSON - CHENNEVIERES","RN4 - Centre Commercial Pince Vent","Chennevières-sur-Marne","94435","FR","","","","Du lundi au Samedi - 10:00 à 19:30","0","0","0"
"913","Conforama ORTHEZ","ROUTE DE BAYONNE","ORTHEZ","64300","FR","","","","Du lundi au Samedi - 09:30 à 12:00 - 14:00 à 19:00","0","0","0"
"753","Conforama OYONNAX","8 AVENUE DE LA GARE","Oyonnax","01100","FR","","","","Du lundi au Samedi - 09:30 à 12:00 - 14:00 à 19:00","0","0","0"
"354079","Conforama PAMIERS","Rue André Citroen","Pamiers","09100","FR","","","","Du lundi au Samedi - 10:00 à 12:00 - 14:00 à 19:00","0","0","0"
"846","Conforama PARIS PONT NEUF","2 RUE DU PONT NEUF","Paris 1er","75001","FR","","","","Du lundi au Samedi - 10:00 à 19:30","1","1","0"
"452479","Conforama PARIS ETOILE","10 Av de la Grande Armée","Paris 17e","75017","FR","","","","Du lundi au Samedi - 10:00 à 20:00","1","1","0"
"845","Conforama PARIS NATION","73-75 AVENUE PHILIPPE AUGUSTE","Paris 11e","75011","FR","","","","Du lundi au Samedi - 10:00 à 19:30","0","0","0"
"847","Conforama PARIS PORTE DE CHATILLON","6/12 AVENUE PIERRE BROSSOLETTE","Malakoff","92240","FR","","","","Du lundi au Samedi - 10:00 à 19:30","0","0","0"
"354064","Conforama PAU - LESCAR","ZAC LESCAR SOLEIL - rue du souvenir Français","Lescar","64230","FR","","","","Du lundi au Samedi - 09:30 à 12:00 - 14:00 à 19:30","0","0","0"
"915","Conforama PERIGUEUX - BOULAZAC","Z.A.C DE L'AGORA","Boulazac","24750","FR","","","","Du lundi au Samedi - 09:30 à 12:00 - 14:00 à 19:00","0","0","0"
"833","Conforama PERPIGNAN","ZAC DU MAS BALANDE","PERPIGNAN","66000","FR","","","","Du lundi au Samedi - 09:30 à 12:00 - 14:00 à 19:00","0","0","0"
"766","Conforama PLAN DE CAMPAGNE - MARSEILLE","CHEMIN PENNES AU PIN","Les Pennes-Mirabeau","13170","FR","","","","Du lundi au Samedi - 10:00 à 19:30","1","1","0"
"816","Conforama PORTET SUR GARONNE","6 avenue des Palanques","PORTET SUR GARONNE","31120","FR","","","","Du lundi au Samedi - 10:00 à 19:30","0","0","0"
"800","Conforama PROVILLE - ESCAUT - CAMBRAI","Z.A.C. FAUBOURG DE PARIS","Proville","59267","FR","","","","Du lundi au Samedi - 09:30 à 12:00 - 14:00 à 19:30","0","0","0"
"769","Conforama PUILBOREAU","ZONE COMMERCIALE BEAULIEU EST","PUILBOREAU","17138","FR","","","","Du lundi au Samedi - 10:00 à 12:30 - 14:00 à 19:30","0","0","0"
"804","Conforama PUYGOUZON","ROUTE DE CASTRES","PUYGOUZON","81990","FR","","","","Du lundi au Samedi - 09:30 à 12:00 - 14:00 à 19:00","0","0","0"
"135057","Conforama REIMS - CORMONTREUIL","ZAC les Blancs Monts","Cormontreuil","51350","FR","","","","Du lundi au Samedi - 09:30 à 19:30","0","0","0"
"881","Conforama RENNES","AVENUE HENRI FREVILLE","Rennes","35200","FR","","","","Du lundi au Samedi - 10:00 à 19:30","0","0","0"
"787","Conforama REZE-LES-NANTES","RUE DE L'ABBÉ GRÉGOIRE","Rezé","44400","FR","","","","Du lundi au Samedi - 10:00 à 12:30 - 14:00 à 19:00","0","0","0"
"754","Conforama ROANNE","Z.A DE MABLY","Roanne","42300","FR","","","","Du lundi au Samedi - 10:00 à 12:00 - 14:00 à 19:00","0","0","0"
"812","Conforama RODEZ - SEBAZAC CONCOURES","Route d'Espalion","Sébazac-Concourès","12740","FR","","","","Du lundi au Samedi - 09:30 à 12:00 - 14:00 à 19:00","1","1","0"
"857","Conforama ROUEN","122/128 AVENUE DU MT RIBOUDET","ROUEN","76000","FR","","","","Du lundi au Samedi - 10:00 à 12:15 - 14:00 à 19:30","0","0","0"
"813","Conforama SAINT ALBAN","ROUTE DE PARIS RN 20","SAINT ALBAN","31140","FR","","","","Du lundi au Samedi - 10:00 à 12:00 - 14:00 à 19:15","0","0","0"
"135461","Conforama SAINT BRICE SOUS FORET","LA CHAPELLE SAINT NICOLAS","SAINT BRICE SOUS FORET","95350","FR","","","","Du lundi au Samedi - 10:00 à 12:30 - 14:30 à 20:00","0","0","0"
"861","Conforama SAINT CLAUDE","CENTRE CCIAL LA VALLEE","SAINT CLAUDE","39200","FR","","","","Du lundi au Samedi - 09:00 à 12:00 - 14:00 à 19:00","0","0","0"
"822","Conforama SAINT DIE DES VOSGES","ZA HELLIEULE 2 VOIE NOUVELLE","SAINT DIE DES VOSGES","88100","FR","","","","Du lundi au Samedi - 10:00 à 12:00 - 14:00 à 19:00","0","0","0"
"257692","Conforama SAINT GEORGES LES COTEAUX","rue Bellegarde","SAINT GEORGES LES COTEAUX","17810","FR","","","","Du lundi au Samedi - 10:00 à 12:00 - 14:00 à 19:00","0","0","0"
"883","Conforama SAINT MALO","CENTRE CCIAL DE LA MADELEINE","Saint-Malo","35400","FR","","","","Du lundi au Samedi - 10:00 à 12:30 - 14:00 à 19:00","0","0","0"
"848","Conforama SAINT OUEN","5 AVENUE CAPITAINE GLARNER","SAINT OUEN","93400","FR","","","","Du lundi au Samedi - 10:00 à 19:30","0","0","0"
"909","Conforama SAINT PAUL LES DAX","15 RUE CHARLES GOUNOD","SAINT PAUL LES DAX","40990","FR","","","","Du lundi au Samedi - 09:30 à 12:00 - 14:00 à 19:00","0","0","0"
"756","Conforama SAINT PRIEST","211 ROUTE DE GRENOBLE","SAINT PRIEST","69800","FR","","","","Du lundi au Samedi - 10:00 à 19:30","1","1","0"
"779","Conforama SAINT QUENTIN","CENTRE COMMERCIAL CORA","SAINT QUENTIN","02100","FR","","","","Du lundi au Samedi - 10:00 à 12:00 - 14:00 à 19:00","0","0","0"
"474492","Conforama Saint-Bonnet-de-Mure","141 Route Nationale 6","Saint-Bonnet-de-Mure","69720","FR","","","","Du lundi au Samedi - 10:00 à 19:00","0","0","0"
"474491","Conforama Saint-Égrève","10 rue René Cassin","Saint-Égrève","38120","FR","","","","Du lundi au Samedi - 09:30 à 12:30 - 14:00 à 19:30","0","0","0"
"354090","Conforama SAINT-GENIS POUILLY","ZA de l'Allondon","Saint-Genis-Pouilly","01630","FR","","","","Du lundi au Samedi - 09:30 à 12:00 - 14:00 à 19:00","0","0","0"
"801","Conforama SAINT-OMER - AUDOMAROIS","RN 43 - ROUTE DE CALAIS","Saint-Omer","62500","FR","","","","Du lundi au Samedi - 10:00 à 12:00 - 14:00 à 19:30","0","0","0"
"863","Conforama SARROLA-CARCOPINO","RN 193 LIEU DIT PERNICAGGIO","SARROLA-CARCOPINO","20167","FR","","","","Du lundi au Samedi - 09:15 à 19:15","0","0","0"
"802","Conforama SECLIN - LILLE","ROUTE D'AVELIN","Seclin","59113","FR","","","","Du lundi au Samedi - 10:00 à 12:00 - 14:00 à 19:30","0","0","0"
"892","Conforama SENS","26 AVENUE GEORGES POMPIDOU","SENS","89100","FR","","","","Du lundi au Samedi - 09:30 à 12:00 - 14:00 à 19:00","0","0","0"
"780","Conforama SOISSONS","13 BOULEVARD DU TOUR DE VILLE","SOISSONS","02200","FR","","","","Du lundi au Samedi - 09:30 à 12:00 - 14:00 à 19:30","0","0","0"
"882","Conforama ST BRIEUC - TREGUEUX","15 RUE MARC SEGUIN","Trégueux","22950","FR","","","","Du lundi au Samedi - 10:00 à 12:15 - 14:00 à 19:15","0","0","0"
"868","Conforama ST DIZIER","CENTRE CCIAL ""LE CHENE ST AMAND""","ST DIZIER","52100","FR","","","","Du lundi au Samedi - 10:00 à 12:00 - 14:00 à 19:00","0","0","0"
"792","Conforama ST MARTIN LEZ BOULOGNE","CENTRE CCIAL COTE D'OPALE A","Saint-Martin-Boulogne","62280","FR","","","","Du lundi au Samedi - 10:00 à 12:00 - 14:00 à 19:30","0","0","0"
"789","Conforama ST NAZAIRE - TRIGNAC","ZAC DE LA FONTAINE AU BRUN","Trignac","44570","FR","","","","Du lundi au Samedi - 09:30 à 12:30 - 14:00 à 19:00","0","0","0"
"815","Conforama TARBES - IBOS","C.C. Le Méridien","Ibos","65420","FR","","","","Du lundi au Samedi - 09:30 à 12:30 - 14:00 à 19:30","0","0","0"
"772","Conforama TONNAY CHARENTE","ROUTE NATIONALE 137","TONNAY CHARENTE","17430","FR","","","","Du lundi au Samedi - 09:30 à 12:30 - 14:00 à 19:00","0","0","0"
"850","Conforama TORCY","CENTRE DE LOISIR BAY1","TORCY","77200","FR","","","","Du lundi au Samedi - 10:00 à 20:00","0","0","0"
"767","Conforama TOULON - LA VALETTE DU VAR","AVENUE DE L'UNIVERSITE","La Valette-du-Var","83160","FR","","","","Du lundi au Samedi - 10:00 à 19:30","0","0","0"
"452477","Conforama TOURVILLE","Le Clos aux Antes","Tourville-la-Rivière","76410","FR","","","","Du lundi au Samedi - 10:00 à 19:30","0","0","0"
"858","Conforama TREVENANS","54 GRANDE RUE","TREVENANS","90400","FR","","","","Du lundi au Samedi - 09:30 à 12:00 - 14:00 à 19:00","0","0","0"
"869","Conforama TROYES","32 AV. CHOMEDEY DE MAISONNEUV","TROYES","10000","FR","","","","Du lundi au Samedi - 09:30 à 12:00 - 14:00 à 19:30","0","0","0"
"826","Conforama USSEL","R.N. 89 ROUTE DE CLERMONT","Ussel","19200","FR","","","","Du lundi au Samedi - 09:30 à 12:00 - 14:00 à 19:00","0","0","0"
"803","Conforama VALENCIENNES - LA SENTINELLE","AUTOROUTE A2 - AVENUE JEAN JAURE","La Sentinelle","59174","FR","","","","Du lundi au Samedi - 09:30 à 12:00 - 14:00 à 19:30","0","0","0"
"135056","Conforama VANNES","ZONE DE LUSCANEN","Vannes","56000","FR","","","","Du lundi au Samedi - 09:45 à 12:15 - 14:00 à 19:00","0","0","0"
"474493","Conforama Vendenheim","6 Rue des Emplettes","Vendenheim","67550","FR","","","","Du lundi au Samedi - 09:30 à 19:30","0","0","0"
"452481","Conforama VERDUN","ZAC DU DRAGON","Verdun","55100","FR","","","","Du lundi au Samedi - 10:00 à 12:00 - 14:00 à 19:00","0","0","0"
"862","Conforama VESOUL","ESPACE DE LA MOTTE","VESOUL","70000","FR","","","","Du lundi au Samedi - 10:00 à 12:00 - 14:00 à 19:00","0","0","0"
"452474","Conforama VICHY - CUSSET","106 Avenue Gilbert Roux","Cusset","03300","FR","","","","Du lundi au Samedi - 09:30 à 12:00 - 14:00 à 19:00","0","0","0"
"851","Conforama VILLACOUBLAY","CTRE CCIAL ART DE VIVRE","VILLACOUBLAY","78140","FR","","","","Du lundi au Samedi - 10:00 à 19:30","0","0","0"
"852","Conforama VILLENEUVE ST GEORGES","RN 6 ZAC PRES DE L'HOPITAL","VILLENEUVE ST GEORGES","94190","FR","","","","Du lundi au Samedi - 10:00 à 19:30","0","0","0"
"916","Conforama VILLENEUVE SUR LOT","Zac de parasol RD 911","Villeneuve-sur-Lot","47300","FR","","","","Du lundi au Samedi - 09:30 à 12:00 - 14:00 à 19:00","0","0","0"
"474494","Conforama Villeneuve-Loubet","970 Route Nationale 7","Villeneuve-Loubet","06270","FR","","","","Du lundi au Samedi - 09:30 à 12:30 - 14:00 à 19:00","0","0","0"
"853","Conforama VITRY SUR SEINE","110 BD DE STALINGRAD","VITRY SUR SEINE","94400","FR","","","","Du lundi au Samedi - 10:00 à 19:30","0","0","0"
"746","Conforama VOGLANS","RUE DE LA FRANCON","VOGLANS","73420","FR","","","","Du lundi au Samedi - 09:30 à 12:30 - 14:00 à 19:00","0","0","0"
"66588","DARTY NICE","28 avenue Notre-Dame","Nice","06000","FR","","","","Du lundi au Samedi - 09:30 à 19:30","1","1","1"
"66541","DARTY BOURG-EN-BRESSE","27 Boulevard Irène Joliot Curie","Bourg-En-Bresse","01000","FR","","","","Du lundi au Samedi - 09:30 à 19:30","0","0","0"
"474517","Darty Gex","Centre Commercial Les Vertes Campagnes Rte de Lyon","Gex","01170","FR","","","","Du lundi au Samedi - 10:00 à 12:00 - 14:00 à 19:00","0","0","0"
"474499","Darty Belley","ZA de l'Ousson","Belley","01300","FR","","","","Du lundi au Samedi - 09:30 à 19:00","0","0","0"
"474506","Darty Laon","Rue Voltaire","Chambry","02000","FR","","","","Du lundi au Samedi - 09:30 à 12:00 - 14:00 à 19:00","0","0","0"
"66407","DARTY FAYET Centre Commercial Forum de Picardie","Centre Commercial Forum de Picardie N 4","Fayet","02100","FR","","","","Du lundi au Samedi - 10:00 à 12:30 - 14:00 à 19:00","0","0","0"
"474561","DARTY Soissons - Vauxbuin","Sentier de la route de Paris","Vauxbuin","02200","FR","","","","Du lundi au Samedi - 10:00 à 19:30","0","0","0"
"474526","Darty Montluçon","15 rue Albert Einstein","Montlucon","03100","FR","","","","Du lundi au Samedi - 09:30 à 19:30","0","0","0"
"66539","DARTY VICHY","37 rue Lucas Centre commercial les 4 Chemins","Vichy","03200","FR","","","","Du lundi au Samedi - 09:30 à 19:30","0","0","0"
"474516","Darty Gap","45 Avenue Bernard GIVAUDAN - Lieu Dit ""LAGAY""","Gap","05000","FR","","","","Du lundi au Samedi - 09:30 à 19:00","0","0","0"
"66589","DARTY NICE LINGOSTIERE","604 Route de Grenoble RN 202 Forum Lingostiere","Nice","06200","FR","","","","Du lundi au Samedi - 10:00 à 19:30","1","1","1"
"66591","DARTY CANNES CENTRE VILLE","90 Rue d'Antibes","Cannes","06400","FR","","","","Du lundi au Samedi - 10:00 à 19:30","0","0","0"
"66590","DARTY CANNES","Allée Louis Blériot Parc d'activités de l'Echangeur","Mandelieu","06210","FR","","","","Du lundi au Samedi - 10:00 à 19:30","0","0","0"
"66592","DARTY ANTIBES","2140 Route de Grasse","Antibes","06600","FR","","","","Du lundi au Samedi - 09:30 à 19:30","1","1","1"
"474523","Darty Marseille - Les Terrasses du Port","9 Quai du LAZARET","Marseille","13002","FR","","","","Du lundi au Samedi - 10:00 à 20:00","1","0","1"
"474496","Darty Aubenas","Zone artisanale du Moulon - Rue de la Sardonne","Aubenas","07200","FR","","","","Du lundi au Samedi - 09:30 à 12:00 - 14:00 à 19:00","0","0","0"
"474513","Darty Davézieux","740 Route de Lyon ZI La Lombardiere","Davezieux","07430","FR","","","","Du lundi au Samedi - 09:00 à 12:00 - 14:00 à 19:00","0","0","0"
"66474","DARTY TROYES","7 avenue Charles de Refuge","St Andre Les Vergers","10120","FR","","","","Du lundi au Samedi - 09:30 à 12:30 - 14:00 à 19:30","0","0","0"
"66580","DARTY CARCASSONNE","ZAC Salvaza Rond point de l'autoroute","Carcassonne","11000","FR","","","","Du lundi au Samedi - 09:30 à 12:00 - 14:00 à 19:30","0","0","0"
"66581","DARTY NARBONNE","18 Rue POLLET","Narbonne","11100","FR","","","","Du lundi au Samedi - 09:30 à 12:30 - 14:00 à 19:30","0","0","0"
"474528","DARTY Rodez","Pôle Commercial Le Comtal Sud","Onet Le Chateau","12850","FR","","","","Du lundi au Samedi - 09:30 à 12:30 - 14:00 à 19:30","0","0","0"
"66593","DARTY CANTINI","26 avenue Jules Cantini","Marseille","13006","FR","","","","Du lundi au Samedi - 09:30 à 19:30","1","1","1"
"66594","DARTY LA VALENTINE","Route de la Sablière Centre Commercial Valentine","Marseille","13011","FR","","","","Du lundi au Samedi - 09:30 à 20:00","1","1","1"
"66597","DARTY AIX-EN-PROVENCE","ZAC de la Pioline Les Milles","Aix En Provence","13290","FR","","","","Du lundi au Samedi - 09:30 à 19:30","1","1","1"
"66596","DARTY VITROLLES","Av Denis Padovani","Vitrolles","13127","FR","","","","Du lundi au Samedi - 09:30 à 19:30","0","0","0"
"66599","DARTY CABRIES","Plan de Campagne Centre Commercial Barnéoud","Cabries","13480","FR","","","","Du lundi au Samedi - 10:00 à 19:30","1","1","1"
"66598","DARTY AUBAGNE","ZAC de la Martelle ZI Les Paluds","Aubagne","13400","FR","","","","Du lundi au Samedi - 10:00 à 19:30","0","0","0"
"66531","DARTY MONTBELIARD","Zac du Pied des Gouttes 2 rue Jean-Baptiste Pertois","Montbeliard","25200","FR","","","","Du lundi au Samedi - 09:30 à 12:15 - 14:00 à 19:30","1","1","1"
"258188","Darty La Ciotat","281 rue Emile Bodin Centre commercial Ciotat Park","La Ciotat","13600","FR","","","","Du lundi au Samedi - 09:30 à 19:30","0","0","0"
"474551","DARTY Martigues - Saint-Mitre-les-Remparts","ZAC des Etangs rue des Roseaux","Saint Mitre Les Remparts","13920","FR","","","","Du lundi au Samedi - 09:30 à 19:30","0","0","0"
"66413","DARTY LISIEUX","2 rue des Mathurins","Lisieux","14100","FR","","","","Du lundi au Samedi - 09:30 à 19:00","0","0","0"
"66414","DARTY MONDEVILLE","Route de Paris - N13","Mondeville","14120","FR","","","","Du lundi au Samedi - 09:30 à 19:30","0","0","0"
"474563","DARTY Vire","Rue Alphonse Savey","Vire","14500","FR","","","","Du lundi au Samedi - 09:30 à 12:00 - 14:00 à 19:00","0","0","0"
"474549","DARTY Caen - Rots","Chemin Croix Vautier","Rots","14980","FR","","","","Du lundi au Samedi - 10:00 à 19:30","0","0","0"
"474497","Darty Aurillac","146 Avenue du Général Leclerc","Aurillac","15000","FR","","","","Du lundi au Samedi - 10:00 à 12:00 - 14:00 à 19:00","0","0","0"
"66533","DARTY ANGOULEME","Centre Commercial Chante Merle Tuilerie rue de la couronne","La Couronne","16400","FR","","","","Du lundi au Samedi - 09:30 à 12:30 - 14:00 à 19:30","0","0","0"
"66534","DARTY LA ROCHELLE","3 rue de Belgique","Puilboreau","17138","FR","","","","Du lundi au Samedi - 09:30 à 12:30 - 14:00 à 19:30","0","0","0"
"474553","DARTY Saintes - Saint-Georges-Des-Coteaux","18 rue des Plaines","Saint-Georges-Des-Coteaux","17810","FR","","","","Du lundi au Samedi - 09:30 à 12:30 - 14:00 à 19:30","0","0","0"
"66503","DARTY BOURGES","565 Route de la Charité","St Germain Du Puy","18390","FR","","","","Du lundi au Samedi - 09:30 à 12:00 - 14:00 à 19:00","0","0","0"
"66537","DARTY BRIVE","Avenue Pierre Mendès-France ZAC du Mazaud","Brive La Gaillarde","19100","FR","","","","Du lundi au Samedi - 09:30 à 12:30 - 14:00 à 19:30","0","0","0"
"66512","DARTY DIJON TOISON D'OR","Quartier de Pouilly Centre Commercial la Toison d'Or","Dijon","21000","FR","","","","Du lundi au Samedi - 10:00 à 20:00","0","0","0"
"66513","DARTY QUETIGNY","13C Boulevard du Grand Marché","Quetigny","21800","FR","","","","Du lundi au Samedi - 09:30 à 19:30","0","0","0"
"66494","DARTY SAINT-BRIEUC","3 rue des Grignons Zone Commerciale Carrefour","Langueux","22360","FR","","","","Du lundi au Samedi - 09:30 à 19:30","0","0","0"
"474554","DARTY Lannion - Saint-Quay-Perros","D767","Saint-Quay-Perros","22700","FR","","","","Du lundi au Samedi - 10:00 à 12:30 - 14:00 à 19:00","0","0","0"
"474500","Darty Bergerac","97 avenue Paul Doumer (Route de Marmande)","Bergerac","24100","FR","","","","Du lundi au Samedi - 09:30 à 12:00 - 14:00 à 19:00","0","0","0"
"474558","DARTY Sarlat-la-Canéda","Route Abbé Breuil","Sarlat La Caneda","24200","FR","","","","Du lundi au Samedi - 09:30 à 12:00 - 14:00 à 19:00","0","0","0"
"66571","DARTY PERIGUEUX","Parc d'activités du Ponteix","Boulazac","24750","FR","","","","Du lundi au Samedi - 09:30 à 19:30","0","0","0"
"66529","DARTY BESANCON","2 Place Leclerc","Besançon","25000","FR","","","","Du lundi au Samedi - 10:00 à 19:30","0","0","0"
"66530","DARTY BESANCON 2","Rue René Char ZAC Châteaufarine","Besancon","25000","FR","","","","Du lundi au Samedi - 09:30 à 19:30","0","0","0"
"66575","DARTY TOULOUSE GRAMONT","Rue de la Tuilerie Porte de Gramont","Balma","31130","FR","","","","Du lundi au Samedi - 09:30 à 20:00","1","1","1"
"66542","DARTY VALENCE","6 place Pierre Lubat Les couleures 3","Valence","26000","FR","","","","Du lundi au Samedi - 09:30 à 19:30","0","0","0"
"66543","DARTY MONTELIMAR","Route de Marseille Centre Commercial Soleil Levant","Montelimar","26200","FR","","","","Du lundi au Samedi - 09:30 à 19:30","0","0","0"
"474518","Darty Gisors","Rue du Faubourg de Neaufles CC Les Templiers","Gisors","27140","FR","","","","Du lundi au Samedi - 10:00 à 12:30 - 14:00 à 19:00","0","0","0"
"474034","Darty Pont-Audemer","Rue de St Ulfrant","Pont-Audemer","27500","FR","","","","Du lundi au Samedi - 10:00 à 12:30 - 14:00 à 19:00","0","0","0"
"66399","DARTY EVREUX","Boulevard Périphérique","Guichainville","27930","FR","","","","Du lundi au Samedi - 09:30 à 19:30","0","0","0"
"474550","DARTY Vernon - Saint-Marcel","Rue des Chaumes","Saint Marcel","27950","FR","","","","Du lundi au Samedi - 10:00 à 19:30","0","0","0"
"66504","DARTY CHARTRES","Avenue des Sablons","Chartres","28000","FR","","","","Du lundi au Samedi - 09:30 à 19:30","0","0","0"
"66505","DARTY DREUX","Rue Henry Potez Zone Artisanale Nord Champtier du Colombier","Dreux","28100","FR","","","","Du lundi au Samedi - 09:30 à 19:30","0","0","0"
"474507","Darty Châteaudun","Lieu-dit ""Les Nouvelles Garennes"" Ancienne RN 10","Chateaudun","28200","FR","","","","Du lundi au Samedi - 10:00 à 12:00 - 14:00 à 19:00","0","0","0"
"66495","DARTY QUIMPER","5 rue de Gourvily ZAC de Gourvily","Quimper","29000","FR","","","","Du lundi au Samedi - 09:30 à 12:30 - 14:00 à 19:30","0","0","0"
"66496","DARTY BREST","Route de Gouesnou Rond Point de l'Hermitage","Brest","29200","FR","","","","Du lundi au Samedi - 09:30 à 19:30","0","0","0"
"474035","Darty Concarneau","2 Rue René Madec - ZA de Keramperu","Concarneau","29900","FR","","","","Du lundi au Samedi - 09:30 à 12:00 - 14:00 à 19:00","0","0","0"
"66582","DARTY ALES","Quartier du Mas d'Hours","Ales","30100","FR","","","","Du lundi au Samedi - 09:30 à 12:00 - 14:00 à 19:30","0","0","0"
"66583","DARTY NIMES","80 Rue du Père BROTTIER","Nimes","30900","FR","","","","Du lundi au Samedi - 09:30 à 19:30","0","0","0"
"66573","DARTY TOULOUSE ESQUIROL","8 Place Esquirol","Toulouse","31000","FR","","","","Du lundi au Samedi - 09:30 à 19:30","0","0","0"
"66574","DARTY PORTET","Route d'Espagne RN 20","Portet Sur Garonne","31120","FR","","","","Du lundi au Samedi - 09:30 à 20:00","0","0","0"
"66576","DARTY TOULOUSE BLAGNAC","AVENUE GEORGES BRASSENS","Blagnac","31700","FR","","","","Du lundi au Samedi - 09:30 à 19:30","1","1","1"
"66564","DARTY BEGLES","Centre Commercial Les Rives D'Arcins","Begles","33130","FR","","","","Du lundi au Samedi - 09:30 à 20:30","1","1","1"
"474541","DARTY Saint Gaudens - Landorthe","Chemin des landes","Landorthe","31800","FR","","","","Du lundi au Samedi - 10:00 à 12:30 - 14:00 à 19:00","0","0","0"
"66499","DARTY RENNES CESSON","Centre Commercial carrefour ZA la Rigourdière","Cesson Sevigne","35510","FR","","","","Du lundi au Samedi - 09:30 à 20:00","1","1","1"
"474521","Darty Arcachon","68 rue Lagrua","La Teste De Buch","33260","FR","","","","Du lundi au Samedi - 10:00 à 12:30 - 14:30 à 19:00","0","0","0"
"66566","DARTY LIBOURNE","102 av Gén de Gaulle Centre commercial Carrefour","Libourne","33500","FR","","","","Du lundi au Samedi - 10:00 à 19:30","0","0","0"
"66567","DARTY MERIGNAC","Centre Commercial Mérignac Soleil","Merignac","33700","FR","","","","Du lundi au Samedi - 09:30 à 19:30","0","0","0"
"243803","DARTY - Montpellier","Centre commercial Odysseum","Montpellier","34000","FR","","","","Du lundi au Samedi - 10:00 à 20:00","0","0","0"
"66584","DARTY MONTPELLIER","Route de Carnon","Perols","34470","FR","","","","Du lundi au Samedi - 09:30 à 19:30","0","0","0"
"66585","DARTY BEZIERS","3 rue Picardan","Beziers","34500","FR","","","","Du lundi au Samedi - 09:30 à 12:30 - 14:00 à 19:30","0","0","0"
"66586","DARTY ST CLEMENT","Centre Commercial Trifontaine Lotissement les cèdres","St-Clement-De-Riviere","34980","FR","","","","Du lundi au Samedi - 09:30 à 12:30 - 14:00 à 19:30","0","0","0"
"474515","Darty Fougères","ZAC de la Pilais","Lecousse","35133","FR","","","","Du lundi au Samedi - 09:30 à 19:00","0","0","0"
"66498","DARTY SAINT MALO","Avenue de la Flaudais Centre Commercial La Madeleine","Saint-Malo","35400","FR","","","","Du lundi au Samedi - 10:00 à 20:00","0","0","0"
"474498","Darty Bain-de-Bretagne","Zone commerciale Château Gaillard","Bain De Bretagne","35470","FR","","","","Du lundi au Samedi - 09:30 à 12:30 - 14:00 à 19:00","0","0","0"
"66508","DARTY TOURS SUD","11 rue Philippe Maupas","Chambray-Les-Tours","37170","FR","","","","Du lundi au Samedi - 09:30 à 19:30","1","1","1"
"66500","DARTY RENNES","Route de Saint-Malo ZAC de l'Auge de Pierre","St-Gregoire","35760","FR","","","","Du lundi au Samedi - 09:30 à 19:30","0","0","0"
"66506","DARTY CHATEAUROUX","Av Occitanie Zone Commerciale St Maur Cap Sud","Saint-Maur","36250","FR","","","","Du lundi au Samedi - 09:30 à 12:00 - 14:00 à 19:30","0","0","0"
"66507","DARTY TOURS NORD","Centre Commercial de la Petite Arche","Tours","37100","FR","","","","Du lundi au Samedi - 09:30 à 19:30","0","0","0"
"66544","DARTY GRANDPLACE","Centre commercial Grand'Place 218 avenue de Belledonne","Grenoble","38100","FR","","","","Du lundi au Samedi - 09:30 à 20:00","1","1","1"
"66546","DARTY ST MARTIN D'HERES","Lieu dit Les Glairons ZAC des champs roman","St-Martin-d'Heres","38400","FR","","","","Du lundi au Samedi - 09:30 à 19:30","1","1","1"
"474555","DARTY Salaise-sur-Sanne","165 route Nationale 7","Salaise Sur Sanne","38150","FR","","","","Du lundi au Samedi - 09:30 à 19:30","0","0","0"
"474036","Darty Saint-Marcellin - Chatte","1235 ZI La Gloriette","Chatte","38160","FR","","","","Du lundi au Samedi - 09:30 à 12:00 - 14:00 à 19:00","0","0","0"
"66545","DARTY BOURGOIN JALLIEU","ZAC La Maladière","Bourgoin Jallieu","38300","FR","","","","Du lundi au Samedi - 09:30 à 19:30","0","0","0"
"66547","DARTY ST-ETIENNE MONTHIEU","140 RUE DE LA MONTAT Centre Commercial de Monthieu","Saint Etienne","42000","FR","","","","Du lundi au Samedi - 09:30 à 20:00","1","1","1"
"474514","Darty Dole","Rue Léon Bel - Zone Commerciale Les Epenottes","Dole","39100","FR","","","","Du lundi au Samedi - 09:30 à 12:30 - 14:00 à 19:00","0","0","0"
"474552","DARTY Mont-De-Marsan - Saint-Pierre-du-Mont","CENTRE COMMERCIAL LE GRAND MOUN","Saint Pierre Du Mont","40280","FR","","","","Du lundi au Samedi - 09:30 à 20:00","0","0","0"
"66572","DARTY DAX","Centre Commercial Grand Mail Adour Océane Route de Mont de Marsan","Saint Paul Lès Dax","40990","FR","","","","Du lundi au Samedi - 09:30 à 19:30","0","0","0"
"66509","DARTY BLOIS","364 rue Lavoisier","Vineuil","41350","FR","","","","Du lundi au Samedi - 09:30 à 12:30 - 14:00 à 19:30","0","0","0"
"66479","DARTY NANCY HOUDEMONT","ZAC de Frocourt Parc Commercial Cora Houdemont","Fleville Devant Nancy","54710","FR","","","","Du lundi au Samedi - 09:30 à 19:30","1","1","1"
"66548","DARTY CENTRE 2","25 Rue des Docteurs Charcot","Saint-Etienne","42100","FR","","","","Du lundi au Samedi - 10:00 à 19:30","0","0","0"
"66549","DARTY ROANNE","Rue Jean de la Fontaine Centre Commercial carre","Mably","42300","FR","","","","Du lundi au Samedi - 09:30 à 19:30","0","0","0"
"474560","DARTY Le Puy-en-Velay - Vals-près-le-Puy","Allée des portes occitanes","Vals Pres Le Puy","43750","FR","","","","Du lundi au Samedi - 09:30 à 19:30","0","0","0"
"66518","DARTY NANTES ST-SEBASTIEN","5 bis rue de Walt Disney Centre Commercial St Séb' Boulevard","Saint Sebastien Sur Loire","44230","FR","","","","Du lundi au Samedi - 10:00 à 19:30","0","0","0"
"474522","Darty Le Pouliguen","5 rue du Pré Malenpogne - Zone Artisanal du Poull'GO","Le Pouliguen","44510","FR","","","","Du lundi au Samedi - 09:30 à 12:00 - 14:30 à 19:00","0","0","0"
"66519","DARTY ST-NAZAIRE","ZAC de la Fontaine au Brun Centre Commercial Trignac","Trignac","44570","FR","","","","Du lundi au Samedi - 09:30 à 12:30 - 14:00 à 19:30","0","0","0"
"66520","DARTY NANTES","242 route de Vannes","Orvault","44700","FR","","","","Du lundi au Samedi - 09:30 à 19:30","0","0","0"
"66511","DARTY OLIVET","25 Rue de Guyenne ZAC Les Provinces","Olivet","45160","FR","","","","Du lundi au Samedi - 09:30 à 19:30","0","0","0"
"243801","DARTY - AMILLY","1522 Avenue d'Antibes","Amilly","45200","FR","","","","Du lundi au Samedi - 09:30 à 19:15","0","0","0"
"474557","DARTY Saran","Rue de la Tuilerie","Saran","45770","FR","","","","Du lundi au Samedi - 09:30 à 19:30","0","0","0"
"474502","Darty Cahors","332 Route de Toulouse","Cahors","46000","FR","","","","Du lundi au Samedi - 09:30 à 12:00 - 14:00 à 19:00","0","0","0"
"474548","DARTY Prayssac","La Rivière de Meymes - Berlingous","Prayssac","46220","FR","","","","Du lundi au Samedi - 09:00 à 12:00 - 14:00 à 19:00","0","0","0"
"66568","DARTY AGEN","ZAC Agen Sud Centre Commercial du Midi","Agen","47000","FR","","","","Du lundi au Samedi - 09:30 à 12:30 - 14:00 à 19:30","0","0","0"
"293187","Darty Angers / Beaucouzé","Centre Commercial Atoll","Beaucouze","49070","FR","","","","Du lundi au Samedi - 10:00 à 20:00","0","0","0"
"474509","Darty Cholet CC L'Autre Faubourg","7 Rue Sorel-Tracy Centre Commercial l'Autre Faubourg","Cholet","49300","FR","","","","Du lundi au Samedi - 10:00 à 19:30","0","0","0"
"474520","Darty La Haye-du-Puits","ZAC du Carrousel - Route de Lessay","La Haye-Du-Puits","50250","FR","","","","Du lundi au Samedi - 09:30 à 12:30 - 14:00 à 19:00","0","0","0"
"66415","DARTY CHERBOURG","Centre Commercial Cap'Nor","La Glacerie","50470","FR","","","","Du lundi au Samedi - 09:30 à 19:30","0","0","0"
"66475","DARTY REIMS","Les Parques Zone Commerciale","Cormontreuil","51350","FR","","","","Du lundi au Samedi - 10:00 à 12:30 - 14:00 à 19:30","0","0","0"
"243802","DARTY - Thillois","Parc Champéa - 1 rue des accacias","Thillois","51370","FR","","","","Du lundi au Samedi - 10:00 à 20:00","0","0","0"
"66477","DARTY CHALONS","Avenue du Président Roosevelt Zone Mercuria","Saint Memmie","51470","FR","","","","Du lundi au Samedi - 09:30 à 12:30 - 14:00 à 19:30","0","0","0"
"66528","DARTY LAVAL","28 rue du Petit Montron Parc de l'Habitat","Laval","53000","FR","","","","Du lundi au Samedi - 09:30 à 12:30 - 14:00 à 19:30","0","0","0"
"66478","DARTY NANCY CENTRE VILLE","Place André Maginot","Nancy","54000","FR","","","","Du lundi au Samedi - 10:00 à 19:30","0","0","0"
"66387","DARTY ENGLOS","Centre Commercial Englos","Haubourdin","59482","FR","","","","Du lundi au Samedi - 09:30 à 20:00","1","1","1"
"66501","DARTY VANNES","Rue Théophraste Renaudot ZAC de Kerlann","Vannes","56000","FR","","","","Du lundi au Samedi - 09:30 à 19:30","0","0","0"
"474527","Darty Muzillac","Zone Commerciale Espace Littoral","Muzillac","56190","FR","","","","Du lundi au Samedi - 09:30 à 12:30 - 14:00 à 19:00","0","0","0"
"66502","DARTY LORIENT","220 rue Youri Gagarine Zone Commerciale GEANT","Lanester","56600","FR","","","","Du lundi au Samedi - 09:30 à 12:30 - 14:00 à 19:30","0","0","0"
"66480","DARTY THIONVILLE","Rue du Linkling","Terville","57180","FR","","","","Du lundi au Samedi - 09:00 à 12:00 - 14:00 à 19:30","0","0","0"
"66481","DARTY SARREGUEMINES","2 Rue du Maréchal Kellermann ZAC Neunkirch","Sarreguemines","57200","FR","","","","Du lundi au Samedi - 09:30 à 12:00 - 14:00 à 19:00","0","0","0"
"66482","DARTY SEMECOURT","Autoroute A4 Zone Euromoselle","Semecourt","57280","FR","","","","Du lundi au Samedi - 10:00 à 19:30","0","0","0"
"66483","DARTY FORBACH","ZI Carrefour de l'Europe RN 3","Forbach","57600","FR","","","","Du lundi au Samedi - 09:30 à 12:00 - 14:00 à 19:30","0","0","0"
"66484","DARTY AUGNY","ZAC AUGNY 2000","Augny","57685","FR","","","","Du lundi au Samedi - 09:30 à 19:30","0","0","0"
"66514","DARTY NEVERS","Route de Fourchambault Centre Commercial CARREFOUR","Marzy","58180","FR","","","","Du lundi au Samedi - 10:00 à 20:00","0","0","0"
"474503","Darty Cambrai","ZAC du Faubourg de Paris - rue René Descartes","Proville","59267","FR","","","","Du lundi au Samedi - 09:30 à 12:30 - 14:00 à 19:30","0","0","0"
"66410","DARTY CREIL","Rue de la liberté ZAC du Bois des Fenêtres","Saint-Maximin","60740","FR","","","","Du lundi au Samedi - 10:00 à 19:45","1","1","1"
"66388","DARTY VALENCIENNES","Centre Commercial Auchan","Petite-Foret","59494","FR","","","","Du lundi au Samedi - 09:30 à 20:00","0","0","0"
"66391","DARTY MAUBEUGE","Rue Jules Gallois Centre Commercial","Louvroil","59720","FR","","","","Du lundi au Samedi - 09:30 à 12:30 - 14:00 à 19:30","0","0","0"
"66392","DARTY LILLE","31 Rue de Béthune","Lille","59800","FR","","","","Du lundi au Samedi - 10:00 à 19:30","0","0","0"
"66408","DARTY BEAUVAIS","2 avenue Descartes ZAC ST-LAZARE","Beauvais","60000","FR","","","","Du lundi au Samedi - 10:00 à 19:30","0","0","0"
"66409","DARTY COMPIEGNE","6 Avenue de l'Europe Centre Commercial Venette","Venette","60280","FR","","","","Du lundi au Samedi - 10:00 à 19:30","0","0","0"
"66569","DARTY BAYONNE","42-44 Avenue du Maréchal Soult","Bayonne","64100","FR","","","","Du lundi au Samedi - 09:30 à 19:30","1","1","1"
"66393","DARTY ARRAS","Rue Claude Bernard Zone commerciale","Arras","62000","FR","","","","Du lundi au Samedi - 10:00 à 12:30 - 14:00 à 19:30","0","0","0"
"66394","DARTY HENIN BEAUMONT","ZAC du bord des Eaux","Henin Beaumont","62110","FR","","","","Du lundi au Samedi - 10:00 à 12:30 - 14:00 à 19:30","0","0","0"
"66395","DARTY CALAIS COQUELLES","Centre Commercial Cité Europe","Coquelles","62231","FR","","","","Du lundi au Samedi - 10:00 à 20:00","0","0","0"
"66396","DARTY BOULOGNE SUR MER","ZAC MontJoie","Saint Martin Les Boulogne","62280","FR","","","","Du lundi au Samedi - 10:00 à 12:30 - 14:00 à 19:30","0","0","0"
"66397","DARTY LABUISSIERE","Parc de la Porte Nord","Bruay Labuissiere","62700","FR","","","","Du lundi au Samedi - 10:00 à 12:30 - 14:00 à 19:30","0","0","0"
"66398","DARTY LENS","Centre Commercial","Vendin-Le-Vieil","62880","FR","","","","Du lundi au Samedi - 09:30 à 12:30 - 14:00 à 19:30","0","0","0"
"66540","DARTY CLERMONT-FERRAND","Rue de l'Hermitage Zone La Pardieu","Clermont-Ferrand","63000","FR","","","","Du lundi au Samedi - 09:30 à 19:30","0","0","0"
"474519","Darty Issoire","14 avenue Pierre Mendes France","Issoire","63500","FR","","","","Du lundi au Samedi - 09:30 à 12:00 - 14:00 à 19:00","0","0","0"
"66486","DARTY STRASBOURG LES HALLES","24 Place des Halles Centre Commercial","Strasbourg","67000","FR","","","","Du lundi au Samedi - 09:00 à 20:00","1","1","1"
"66570","DARTY PAU","Avenue Jean Jaurès","Lescar","64230","FR","","","","Du lundi au Samedi - 09:30 à 12:30 - 14:00 à 19:30","0","0","0"
"66577","DARTY TARBES","ZA La Pyrénéenne","Ibos","65420","FR","","","","Du lundi au Samedi - 09:30 à 12:30 - 14:00 à 19:30","0","0","0"
"66587","DARTY PERPIGNAN","925 Avenue d'Espagne","Perpignan","66100","FR","","","","Du lundi au Samedi - 09:30 à 19:30","0","0","0"
"474039","Darty Amélie-les-Bains","8 RUE DES ALBERES","Amelie Les Bains Palalda","66110","FR","","","","Du lundi au Samedi - 09:30 à 12:00 - 14:00 à 19:00","0","0","0"
"474510","Darty Perpignan Claira","Avenue Georges Frèche","Claira","66530","FR","","","","Du lundi au Samedi - 09:30 à 12:30 - 14:00 à 19:30","0","0","0"
"66491","DARTY COLMAR","2 rue Curie","Colmar","68000","FR","","","","Du lundi au Samedi - 09:00 à 12:15 - 14:00 à 19:30","1","1","1"
"66488","DARTY LA MEINAU","329 avenue de Colmar","Strasbourg Meinau","67100","FR","","","","Du lundi au Samedi - 10:00 à 12:00 - 14:00 à 19:00","0","0","0"
"66489","DARTY LAMPERTHEIM","Route de Brumath","Lampertheim","67450","FR","","","","Du lundi au Samedi - 09:30 à 19:30","1","1","1"
"66490","DARTY HAGUENAU","3 Place de Geisselbronn,","Schweighouse Sur Moder","67590","FR","","","","Du lundi au Samedi - 09:30 à 12:00 - 14:00 à 19:00","0","0","0"
"474501","Darty Boofzheim","Route de Rhinau","Boofzheim","67860","FR","","","","Du lundi au Samedi - 09:30 à 12:00 - 14:00 à 19:00","0","0","0"
"66550","DARTY LA PART DIEU","Centre Commercial La Part Dieu - 3ème niveau","Lyon","69003","FR","","","","Du lundi au Samedi - 09:30 à 20:00","1","1","1"
"66492","DARTY MULHOUSE DORNACH","261 Rue de Belfort LE TRIDENT","Mulhouse","68200","FR","","","","Du lundi au Samedi - 09:45 à 12:30 - 14:00 à 19:15","0","0","0"
"66493","DARTY WITTENHEIM","96 rue de Soultz","Wittenheim","68270","FR","","","","Du lundi au Samedi - 09:30 à 12:30 - 14:00 à 19:00","0","0","0"
"66553","DARTY VILLEFRANCHE SUR SAÔNE","451 Avenue de l'Europe","Villefranche Sur Saône","69400","FR","","","","Du lundi au Samedi - 09:30 à 19:30","1","1","1"
"66551","DARTY VENISSIEUX","Allee des Savoies","Venissieux","69200","FR","","","","Du lundi au Samedi - 09:30 à 19:30","0","0","0"
"66552","DARTY CALUIRE","10 chemin Petit Centre Commercial Caluire II","Caluire","69300","FR","","","","Du lundi au Samedi - 09:30 à 20:00","0","0","0"
"66556","DARTY LIMONEST","ZAC des sans soucis Route nationale 6","Limonest","69760","FR","","","","Du lundi au Samedi - 09:30 à 19:45","1","1","1"
"66554","DARTY BRON","rue Paul Langevin","Bron","69500","FR","","","","Du lundi au Samedi - 09:30 à 20:00","0","0","0"
"66555","DARTY GIVORS","Centre Commercial 2 Vallées","Givors","69700","FR","","","","Du lundi au Samedi - 09:30 à 19:30","0","0","0"
"66558","DARTY CHAMBERY 2","250 Rue Eugène Ducretet Centre Commercial Chamnord","Chambéry","73000","FR","","","","Du lundi au Samedi - 09:30 à 19:30","1","1","1"
"66557","DARTY SAINT-PRIEST","211 Route de Grenoble","Saint-Priest","69800","FR","","","","Du lundi au Samedi - 10:00 à 19:30","0","0","0"
"66515","DARTY CHALON","Rue Thomas Dumorey","Chalon-Sur-Saone","71100","FR","","","","Du lundi au Samedi - 09:30 à 19:30","0","0","0"
"474524","Darty Montceau-les-Mines","Centre commercial Ste-Elisabeth","Montceau-Les-Mines","71300","FR","","","","Du lundi au Samedi - 10:00 à 12:00 - 14:00 à 19:00","0","0","0"
"66516","DARTY MACON","Centre Commercial Les Bouchardes Situé devant carrefour","Creches-Sur-Saone","71680","FR","","","","Du lundi au Samedi - 09:30 à 19:30","0","0","0"
"66524","DARTY ALENCON","Zone commerciale le petit coudray","Arconnay","72610","FR","","","","Du lundi au Samedi - 09:30 à 12:30 - 14:00 à 19:00","0","0","0"
"66525","DARTY LE MANS","Avenue des Frères Renault Centre Commercial Auchan","La Chapelle St Aubin","72650","FR","","","","Du lundi au Samedi - 10:00 à 19:30","0","0","0"
"66561","DARTY THONON","Avenue Pré Robert Sud","Anthy Sur Léman","74200","FR","","","","Du lundi au Samedi - 09:30 à 19:30","1","1","1"
"66559","DARTY CHAMBERY 1","78 RUE DE LA MARTINIERE RN 512","Saint Alban Leysse","73230","FR","","","","Du lundi au Samedi - 09:30 à 12:30 - 14:00 à 19:30","0","0","0"
"66560","DARTY ANNEMASSE","2 rue des Esserts Zone industrielle du Mont Blanc","Annemasse","74100","FR","","","","Du lundi au Samedi - 09:30 à 19:30","0","0","0"
"66562","DARTY ANNECY","42 rue des Peupliers","Epagny","74330","FR","","","","Du lundi au Samedi - 09:30 à 19:30","1","1","1"
"66416","DARTY LES HALLES","2 porte Pont-Neuf","Paris","75001","FR","","","","Du lundi au Samedi - 10:00 à 20:00","1","1","1"
"66417","Darty Rivoli","10 rue Boucher","Paris","75001","FR","","","","Du lundi au Samedi - 10:00 à 19:30","1","1","1"
"66419","DARTY LA MADELEINE","Place de la Madeleine parking tronchet","Paris","75008","FR","","","","Du lundi au Samedi - 10:00 à 19:30","1","1","1"
"66421","DARTY REPUBLIQUE","1 avenue de la République","Paris","75011","FR","","","","Du lundi au Samedi - 10:00 à 19:30","1","1","1"
"66420","DARTY BELLEVILLE","25 boulevard de Belleville","Paris","75011","FR","","","","Du lundi au Samedi - 10:00 à 19:30","0","0","0"
"66422","DARTY ITALIE 2","Place d'Italie Centre Commercial Italie II","Paris","75013","FR","","","","Du lundi au Samedi - 10:00 à 21:00","1","1","1"
"474547","DARTY Paris 12 Bercy","14 rue Escoffier","Paris","75012","FR","","","","Du lundi au Samedi - 10:00 à 20:30","0","0","0"
"66423","DARTY BIBLIOTHEQUE NATIONALE DE FRANCE","29 Rue Neuve Tolbiac","Paris","75013","FR","","","","Du lundi au Samedi - 10:00 à 20:00","0","0","0"
"66424","DARTY MONTPARNASSE","68 avenue du Maine","Paris","75014","FR","","","","Du lundi au Samedi - 10:00 à 19:30","1","1","1"
"75015","DARTY Beaugrenelle","Centre Commercial Beaugrenelle Rue Linois","Paris","75015","FR","","","","Du lundi au Samedi - 10:00 à 19:30","1","1","1"
"66426","DARTY PASSY","92 Avenue Paul Doumer","Paris","75016","FR","","","","Du lundi au Samedi - 10:00 à 19:30","1","1","1"
"66428","DARTY TERNES","8 avenue des Ternes","Paris","75017","FR","","","","Du lundi au Samedi - 10:00 à 20:00","1","1","1"
"66427","DARTY SAINT-OUEN","125 Avenue de Saint Ouen","Paris","75017","FR","","","","Du lundi au Samedi - 10:00 à 19:30","0","0","0"
"66429","DARTY MONTMARTRE","56 boulevard de Rochechouart","Paris","75018","FR","","","","Du lundi au Samedi - 10:00 à 19:30","1","1","1"
"66430","DARTY NATION","21 cours de Vincennes","Paris","75020","FR","","","","Du lundi au Samedi - 10:00 à 21:00","1","1","1"
"66405","DARTY TOURVILLE","ZAC DU CLOS DES ANTES","Tourville La Riviere","76410","FR","","","","Du lundi au Samedi - 09:30 à 19:30","1","1","1"
"66400","DARTY ROUEN RIVE DROITE","33 Rue Jeanne d'Arc","Rouen","76000","FR","","","","Du lundi au Samedi - 10:00 à 19:00","0","0","0"
"66401","DARTY ROUEN RIVE GAUCHE","47 avenue de Caen","Rouen","76100","FR","","","","Du lundi au Samedi - 09:30 à 19:30","0","0","0"
"66402","DARTY DIEPPE","125 Av des canadiens Centre commercial Le Belvédère","Dieppe","76200","FR","","","","Du lundi au Samedi - 10:00 à 19:30","0","0","0"
"66403","DARTY LE HAVRE 2","Centre commercial Grand Havre - La lezarde","Montivilliers","76290","FR","","","","Du lundi au Samedi - 09:30 à 19:30","0","0","0"
"66404","DARTY BARENTIN","315 rue Liberté","Barentin","76360","FR","","","","Du lundi au Samedi - 09:30 à 19:30","0","0","0"
"66432","DARTY CARRE SENART","Centre Commercial Carré Sénart 3 allée du Préambule","Lieusaint","77127","FR","","","","Du lundi au Samedi - 10:00 à 21:00","1","1","1"
"66406","DARTY LE HAVRE","41 avenue du Président Coty","Le Havre","76600","FR","","","","Du lundi au Samedi - 09:30 à 19:30","0","0","0"
"66431","DARTY TORCY","Centre Commercial Bay 2","Collegien","77090","FR","","","","Du lundi au Samedi - 09:30 à 20:30","0","0","0"
"474512","Darty Coulommiers","3 rue des Margats","Coulommiers","77120","FR","","","","Du lundi au Samedi - 10:00 à 12:00 - 14:00 à 19:00","0","0","0"
"77144","DARTY SERRIS","Zone Commerciale ""Clos du Chêne"" - Rue du Clos Rose","MONTEVRAIN","77144","FR","","","","Du lundi au Samedi - 10:00 à 19:30","1","1","1"
"66433","Darty CC Villiers en Bière","Centre Commercial Villiers en Bière","Dammarie-Les-Lys","77190","FR","","","","Du lundi au Samedi - 09:30 à 20:30","1","1","1"
"66434","DARTY PONTAULT-COMBAULT","1 rue des Epinettes Centre Commercial RN 4","Pontault-Combault","77340","FR","","","","Du lundi au Samedi - 09:30 à 20:30","0","0","0"
"66435","DARTY CLAYE-SOUILLY","Centre Commercial Régional RN 3","Claye-Souilly","77410","FR","","","","Du lundi au Samedi - 10:00 à 21:00","0","0","0"
"66438","DARTY VELIZY","avenue de l'Europe Centre Commercial Velizy II","Velizy Villacoublay","78140","FR","","","","Du lundi au Samedi - 10:00 à 22:00","1","1","1"
"66439","DARTY PARLY 2","Av Charles de Gaulle Centre Commercial Parly 2","Le Chesnay","78150","FR","","","","Du lundi au Samedi - 10:00 à 21:00","1","0","1"
"66441","DARTY MANTES","Zone des Closeaux Lieu dit les Petits Graviers","Buchelay","78200","FR","","","","Du lundi au Samedi - 10:00 à 19:30","0","0","0"
"474511","Darty Coignières","Rue des Frères Lumière","Coignières","78310","FR","","","","Du lundi au Samedi - 10:00 à 20:00","0","0","0"
"66442","DARTY PLAISIR","Zone Commerciale Grand Plaisir Rue Francis Carco","Plaisir","78370","FR","","","","Du lundi au Samedi - 10:00 à 19:30","1","1","1"
"66443","DARTY SARTROUVILLE","Rue Jean-Pierre Timbaud Zone Commerciale du Plateau","Sartrouville","78500","FR","","","","Du lundi au Samedi - 10:00 à 19:30","0","0","0"
"474562","DARTY Orgeval - Villennes-sur-Seine","Centre Commercial WHITE PARC","Villennes Sur Seine","78670","FR","","","","Du lundi au Samedi - 10:00 à 20:00","1","1","1"
"66535","DARTY NIORT","Espace Mendes France - 9 rue Robert Turgot","Niort","79000","FR","","","","Du lundi au Samedi - 09:30 à 12:30 - 14:00 à 19:30","0","0","0"
"66411","DARTY AMIENS","Rue Vélasquez Centre Commercial Nord","Amiens","80080","FR","","","","Du lundi au Samedi - 09:30 à 12:30 - 14:00 à 19:30","0","0","0"
"66578","DARTY ALBI","ZAC de FONLABOUR","Albi","81000","FR","","","","Du lundi au Samedi - 09:30 à 19:30","0","0","0"
"474504","Darty Castres","12 rue Albert Calmette","Castres","81100","FR","","","","Du lundi au Samedi - 09:30 à 19:30","0","0","0"
"66579","DARTY MONTAUBAN","915 route du Nord Parc Commercial d'Aussonne","Montauban","82000","FR","","","","Du lundi au Samedi - 09:30 à 19:30","0","0","0"
"66600","DARTY TOULON","23 avenue des Frères Lumière","La-Valette","83160","FR","","","","Du lundi au Samedi - 09:30 à 19:30","1","1","1"
"66601","DARTY OLLIOULES","Quartier Quiez","Ollioules","83190","FR","","","","Du lundi au Samedi - 09:30 à 19:30","1","1","1"
"66602","DARTY PUGET/ARGENS","Quartier Les Salles Centre commercial RN 7","Puget-Sur-Argens","83480","FR","","","","Du lundi au Samedi - 09:30 à 19:30","0","0","0"
"66604","DARTY LE PONTET","123 avenue Isaac Newton","Le Pontet","84130","FR","","","","Du lundi au Samedi - 09:30 à 20:00","1","1","1"
"474525","Darty Avignon Sud - Montfavet","160 avenue Marcou Delanglade","Montfavet","84140","FR","","","","Du lundi au Samedi - 09:30 à 19:30","0","0","0"
"474495","Darty Apt","59 Avenue de Lançon","Apt","84400","FR","","","","Du lundi au Samedi - 09:00 à 12:00 - 14:00 à 19:00","0","0","0"
"66526","DARTY LA ROCHE SUR YON","Centre commercial les Flâneries","La Roche Sur Yon","85000","FR","","","","Du lundi au Samedi - 09:30 à 19:30","0","0","0"
"474505","Darty Challans","Espace commercial Les Alizés - Rue Albert Camus","Challans","85300","FR","","","","Du lundi au Samedi - 09:30 à 12:30 - 14:00 à 19:00","0","0","0"
"66527","DARTY LES SABLES D'OLONNE","15 Rue du Compagnonnage Le Champ du Moulin","Olonne Sur Mer","85340","FR","","","","Du lundi au Samedi - 09:30 à 12:30 - 14:00 à 19:30","0","0","0"
"66536","DARTY POITIERS","14 allée du Haut-Poitou","Chasseneuil Du Poitou","86360","FR","","","","Du lundi au Samedi - 09:30 à 19:30","0","0","0"
"243804","DARTY - LIMOGES","Family village 30 rue amédée Gordini Zone nord 3","Limoges","87280","FR","","","","Du lundi au Samedi - 09:30 à 19:30","0","0","0"
"66485","DARTY EPINAL","ZAC des Terres Saint Jean","Epinal","88000","FR","","","","Du lundi au Samedi - 09:30 à 12:30 - 14:00 à 19:30","0","0","0"
"66517","DARTY AUXERRE","74 Avenue Haussmann","Auxerre","89000","FR","","","","Du lundi au Samedi - 09:30 à 12:15 - 14:00 à 19:15","0","0","0"
"66532","DARTY BELFORT","ZAC des Près Parc des expositions","Andelnans","90400","FR","","","","Du lundi au Samedi - 09:30 à 12:00 - 14:00 à 19:00","0","0","0"
"66446","DARTY VILLABE","3 Rue de la Plaine - Z.A.C. des Brateaux","Villabe","91100","FR","","","","Du lundi au Samedi - 10:00 à 20:30","0","0","0"
"66447","DARTY VILLEBON","Avenue de la Plesse Centre Commercial Villebon 2","Villebon Sur Yvette","91140","FR","","","","Du lundi au Samedi - 10:00 à 19:30","1","1","1"
"66448","DARTY MORSANG","51 rue de Montlhéry","Morsang Sur Orge","91390","FR","","","","Du lundi au Samedi - 09:30 à 12:30 - 14:00 à 19:30","0","0","0"
"66449","DARTY STE GENEVIEVE DES BOIS","4 Rue des Petits Champs","Sainte-Geneviève-Des-Bois","91700","FR","","","","Du lundi au Samedi - 10:00 à 19:30","1","1","1"
"66450","DARTY LES ULIS","Centre Commercial Ulis 2","Les Ulis","91940","FR","","","","Du lundi au Samedi - 10:00 à 20:30","0","0","0"
"66451","DARTY BOULOGNE","122 Avenue du Général Leclerc","Boulogne Billancourt","92100","FR","","","","Du lundi au Samedi - 10:00 à 19:30","1","1","1"
"66452","DARTY CHATILLON","151 avenue de Paris","Chatillon","92320","FR","","","","Du lundi au Samedi - 10:00 à 19:30","1","1","1"
"66454","DARTY LA DEFENSE","2 Parvis de la Défense Centre Commercial des 4 Temps","Puteaux","92800","FR","","","","Du lundi au Samedi - 10:00 à 20:00","1","1","1"
"66455","DARTY ROSNY","Avenue du Général de Gaulle Centre Commercial Rosny 2","Rosny-Sous-Bois","93110","FR","","","","Du lundi au Samedi - 10:00 à 21:00","1","1","1"
"66456","DARTY BONDY","143-155 avenue Galliéni","Bondy","93140","FR","","","","Du lundi au Samedi - 10:00 à 19:30","0","0","0"
"66457","DARTY MARNE-LA-VALLEE","Centre Commercial des Arcades","Noisy-Le-Grand","93160","FR","","","","Du lundi au Samedi - 10:00 à 20:00","0","0","0"
"66459","DARTY LA VILLETTE","6 rue Emile Reynaud","Aubervilliers","93300","FR","","","","Du lundi au Samedi - 10:00 à 19:30","0","0","0"
"66461","DARTY SAINT-OUEN RER","ZAC de la Place du RER 4 rue Nadia Guendouz","Saint-Ouen","93400","FR","","","","Du lundi au Samedi - 10:00 à 19:30","0","0","0"
"66462","DARTY PARINOR","Haut de Galy Centre Commercial Parinor","Aulnay-Sous-Bois","93600","FR","","","","Du lundi au Samedi - 10:00 à 21:00","0","0","0"
"66463","DARTY CRETEIL","Centre Commercial Créteil Soleil","Creteil","94000","FR","","","","Du lundi au Samedi - 10:00 à 21:00","1","1","1"
"66464","DARTY ARCUEIL","les Portes d'Arcueil Centre Commercial régional la vache noire","Arcueil","94110","FR","","","","Du lundi au Samedi - 10:00 à 20:00","1","1","1"
"66467","DARTY FRESNES","14 allée de l'Abreuvoir","Fresnes","94260","FR","","","","Du lundi au Samedi - 10:00 à 12:30 - 14:00 à 19:30","0","0","0"
"66468","DARTY RUNGIS","Centre Commercial Belle Epine","Thiais","94320","FR","","","","Du lundi au Samedi - 10:00 à 21:00","1","1","1"
"474564","DARTY Vitry-sur-Seine","96 boulevard de Stalingrad Centre commercial Via Bella","Vitry Sur Seine","94400","FR","","","","Du lundi au Samedi - 10:00 à 19:30","0","0","0"
"474508","Darty Ormesson","Av. de Pince Vent /Av. de l'Hippodrome","Chennevieres-Sur-Marne","94430","FR","","","","Du lundi au Samedi - 10:00 à 20:00","0","0","0"
"66469","DARTY CHAMPIGNY","12 avenue Roger Salengro RN 4","Champigny Sur Marne","94500","FR","","","","Du lundi au Samedi - 10:00 à 19:30","0","0","0"
"66470","DARTY CERGY","Centre Commercial des 3 Fontaines","Cergy","95000","FR","","","","Du lundi au Samedi - 10:00 à 20:00","0","0","0"
"66471","DARTY HERBLAY","9 mail des Copistes ZAC des copistes","Herblay","95220","FR","","","","Du lundi au Samedi - 10:00 à 20:00","1","1","1"
"66472","DARTY L'ISLE ADAM","Centre commercial le Grand Val","L'Isle Adam","95290","FR","","","","Du lundi au Samedi - 10:00 à 19:30","0","0","0"
"66473","DARTY SAINT BRICE","Av Robert Schumann ZAC des Perruches","Saint Brice Sous Foret","95350","FR","","","","Du lundi au Samedi - 10:00 à 19:30","0","0","0"
"i1001","DARBON MENAGER SERVICE","1 rue de L'Est","BOURG EN BRESSE","01100","FR","darbon.menager.service@orange.fr","","","","0","0","1"
"i1002","MULTISERVICES MOULINOIS PLUS","95 route de Lyon","MOULINS","03000","FR","multiservices.moulinois@wanadoo.fr","","","","0","0","1"
"i1003","GAP DEPANNAGE","2 rue du Cheval Blanc","GAP","05000","FR","gap-depannages@wanadoo.fr","","","","0","0","1"
"i1004","MENTON MENAGER","12 rue des Soeurs Munet","MENTON","06500","FR","menton.menager@wanadoo.fr","","","","0","0","1"
"i1005","C H A P","24 Av. Ste-Marguerite","CANNES LA BOCCA","06150","FR","chap.sarl@sfr.fr","","","","0","0","1"
"i1006","SERVICE ASSISTANCE - S.P.D.","285 Av. des Maurettes","VILLENEUVE LOUBET","06270","FR","serviceassistance.renard@wanadoo.fr","","","","0","0","1"
"i1007","L'ATELIER PHILIPPE","2 ter Av.Clément Faugier","PRIVAS","07000","FR","atelier.philippe07@orange.fr","","","","0","0","1"
"i1008","ATELIER TVM","Quartier le Baril","LA CHAPELLE SOUS AUBENAS","07200","FR","moussa.benali@wanadoo.fr","","","","0","0","1"
"i1009","A VOT SERVICE","1 rue Dubois Crancé","CHARLEVILLE-MEZIERES","08000","FR","avotservice@wanadoo.fr","","","","0","0","1"
"i1010","ELECTRONIC DIFFUSION","179 rue de Preize","TROYES","10000","FR","patricia.elecdif@orange.fr","","","","0","0","1"
"i1011","ATELIER VIDEO SERVICE 52","Rue Louis Desprez - ZI","BAR SUR AUBE","10200","FR","diprudent@wanadoo.fr","","","","0","0","1"
"i1012","APM ATELIER PETIT MENAGER","2 rue Claude Chappe","PONT STE MARIE","10150","FR","apm10150@orange.fr","","","","0","0","1"
"i1013","SODEM","8 Av. du Général Leclerc","NARBONNE","11100","FR","sodem@wanadoo.fr","","","","0","0","1"
"i1014","CTR","102 Av. du Général Leclerc","CARCASSONNE","11000","FR","c-t.r@wanadoo.fr","","","","0","0","1"
"i1015","AVEYRON SERVICE MENAGER","38 Avenue de la Gineste","RODEZ","12000","FR","aveyronservicemenager@wanadoo.fr","","","","0","0","1"
"i1016","ALVES DOMINGOS","900 avenue de Calès","MILLAU","12100","FR","domingos.alves0441@orange.fr","","","","0","0","1"
"i1017","CREM","184 Bd Jean Jaurès","SALON DE PROVENCE","13300","FR","crem-13@wanadoo.fr","","","","0","0","1"
"i1018","SOCERAM","27 Av. des Goums","AUBAGNE","13400","FR","soceram@wanadoo.fr","","","","0","0","1"
"i1019","TECHNIC MENAGER - CYRANO","6 rue Granon","MARSEILLE","13004","FR","contact@technicmenager.com","","","","0","0","1"
"i1020","SARL SERVICE PIECES MENAGER","Chemin de Velaux","PLAN DE CAMPAGNE","13170","FR","spm7@wanadoo.fr","","","","0","0","1"
"i1021","SODIPAM","122 Pont de Vivaux","MARSEILLE","13010","FR","sodipam@yahoo.fr","","","","0","0","1"
"i1022","AIX SERVICES MENAGER","Le Maillane - 11 rue Blaise Cendrars","AIX EN PROVENCE","13090","FR","stlouisservice@wanadoo.fr","","","","0","0","1"
"i1023","A.M.S.","126 Av. du 24 Avril 1915","MARSEILLE","13012","FR","ams.karagosian@wanadoo.fr","","","","0","0","1"
"i1024","ELECTRO PIECES MINUTE","44 rue Léopold Bérenger Bachelier","VITROLLES","13127","FR","electropm@wanadoo.fr","","","","0","0","1"
"i1025","MULTI PIECES ELECTROMENAGER","2 Place Fournet","LISIEUX","14100","FR","multipieces.electromenager@wanadoo.fr","","","","0","0","1"
"i1026","ELECTRO DEP","11 Boulevard du Vialenc","AURILLAC","15000","FR","electrodep15@wanadoo.fr","","","","0","0","1"
"i1027","R.E.M.","63 Bd Guillet Maillet","SAINTES","17100","FR","rem17@wanadoo.fr","","","","0","0","1"
"i1028","BOURGES MENAGER SERVICE","88 Av de la Prospective","BOURGES","18000","FR","bourges.menager.service@wanadoo.fr","","","","0","0","1"
"i1029","ELECTRO SERVICES 19","55 Av. P.Semard","BRIVE-LA-GAILLARDE","19100","FR","electro.service19.pm@orange.fr","","","","0","0","1"
"i1030","DIJON PIECES MENAGER - ASPIM'S","4 rue de Cracovie - ZAE Cap Nord","DIJON","21000","FR","suivisav@aspimsdpm.com","","","","0","0","1"
"i1031","VMBS","6 rue Robert Schuman","CHEVIGNY SAINT SAUVEUR","21800","FR","contact@vmbs.fr","","","","0","0","1"
"i1032","D R M SERVICE","10 rue Jules Verne","LANGUEUX","22360","FR","drm.service@wanadoo.fr","","","","0","0","1"
"i1033","ETS PINARD","29 Grande rue","GUERET","23000","FR","ets.pinard@wanadoo.fr","","","","0","0","1"
"i1034","AM ASSISTANCE AUDIOVISUEL ET MENAGER","4 rue de la Prairie","MARSAC SUR L'ISLE","24430","FR","2am-24@wanadoo.fr","","","","0","0","1"
"i1035","ASPI VAPEUR SERVICE","64 Cours St Georges","NOTRE DAME DE SANILHAC","24660","FR","aspivapeurservices@wanadoo.fr","","","","0","0","1"
"i1036","SARL G.S. GORCZYCA","ZI Plein coeur","TAILLECOURT","25440","FR","gs.sarl@wanadoo.fr","","","","0","0","1"
"i1037","SARL MULTISERVICES","9 Grande Rue","MORTEAU","25500","FR","sarl.multiservices@orange.fr","","","","0","0","1"
"i1038","S.A.V 25","15 Av. de Montrapon","BESANCON","25000","FR","sav-25@wanadoo.fr","","","","0","0","1"
"i1039","GEO","22 avenue Kennedy","MONTELIMAR","26200","FR","geo-pieces@wanadoo.fr","","","","0","0","1"
"i1040","MAINTENANCE MENAGER 27","3 rue des Champs","ST-MARCEL","27950","FR","maintenance.menager@wanadoo.fr","","","","0","0","1"
"i1041","MENAGER SERVICE 28","2 rue Georges Charpak","MAINVILLIERS","28300","FR","menager-service.28@wanadoo.fr","","","","0","0","1"
"i1042","Ets GUILLOUX","3 rue du Cosquer","QUIMPER","29000","FR","flatres.julie@neuf.fr","","","","0","0","1"
"i1043","FLASH SERVICE","28 rue du Pr.Langevin","BREST","29200","FR","flash.service@wanadoo.fr","","","","0","0","1"
"i1044","TREGOR SERVICE","81 rue Gambetta","MORLAIX","29600","FR","tregorservice@wanadoo.fr","","","","0","0","1"
"i1045","C.S.E.M","119 rue de Paris","BREST","29200","FR","CSEM29@FREE.FR","","","","0","0","1"
"i1046","Ets AYME","70 Av. Général Leclerc","NIMES","30000","FR","sarlayme@aol.com","","","","0","0","1"
"i1047","SERVICE 30","Avenue de la Mayre","BAGNOLS SUR CEZE","30200","FR","service.30@wanadoo.fr","","","","0","0","1"
"i1048","CENTRE DEPANNAGE SERVICE","15 rue Matabiau","TOULOUSE","31000","FR","cds.toulouse@cds31.com","","","","0","0","1"
"i1049","CENTRE DEPANNAGE SERVICE","1Allée des Nymphéas - Route d'Albi","L'UNION","31240","FR","cds.lunion@cds31.com","","","","0","0","1"
"i1050","ADR ELECTROMENAGER","27 rue d'Occitanie","ROQUETTES","31120","FR","adrelectromenager@gmail.com","","","","0","0","1"
"i1051","VAP SERVICE","7 Bd Antoine Gautier","BORDEAUX","33000","FR","vap.services@wanadoo.fr","","","","0","0","1"
"i1052","ADAM DEPANNAGES","ZI Actipolis II - 6 rue de la Pointe","CANEJAN","33610","FR","contact@adamdepannage.fr","","","","0","0","1"
"i1053","REPARATION ELECTRO MENAGER","24 rue Debés","BEZIERS","34500","FR","hernandez6@wanadoo.fr","","","","0","0","1"
"i1054","MEDITERRANEE SERVICE","12 Bd Vieussens","MONTPELLIER","34000","FR","contact@mediterraneeservice.com","","","","0","0","1"
"i1055","SERVERO SARL","175 rue Gariguette","SAINT AULNES","34130","FR","serveroatelier@gmail.com","","","","0","0","1"
"i1056","ETS POMMEREUL","3 rue Théodore Levannier","LECOUSSE","35133","FR","compta@pommereul.com","","","","0","0","1"
"i1057","CLINIC'ELECTROMECA","ZAC des Logettes","CHANTEPIE","35135","FR","clinic35@orange.fr","","","","0","0","1"
"i1058","ATELIER MENAGER SERVICE","9 rue du Pré Botté - Fond de la cour","RENNES","35000","FR","amsrennes@orange.fr","","","","0","0","1"
"i1059","SAV S.T.T.","124 Av de Blois","CHATEAUROUX","36000","FR","savstt@wanadoo.fr","","","","0","0","1"
"i1060","DELTA MENAGER","3 route de Reuilly","ISSOUDUN","36100","FR","sav@delta-menager.fr","","","","0","0","1"
"i1061","SARL CSA M.T.V SERVICE","3 Place Rouget de L'Isle","TOURS","37000","FR","","","","","0","0","1"
"i1062","SARL THOMAS","42 rue Baptiste Marcet","TOURS","37100","FR","thomas.dep@wanadoo.fr","","","","0","0","1"
"i1063","MENA ISERE SERVICE","ZAC Porte du Gresivaudan. Secteur 9. 9 rue Marcel Chabloz","ST MARTIN D'HERES","38400","FR","mena.isere@orange.fr","","","","0","0","1"
"i1064","DEPLAND","82 rue dive","MONT-DE-MARSAN","40000","FR","depland@wanadoo.fr","","","","0","0","1"
"i1065","BLOIS DEPANNAGE - ELIONA","7 rue du 28 janvier","BLOIS","41000","FR","bloisdepannage@wanadoo.fr","","","","0","0","1"
"i1066","LMS PLUS","128 bis rue Bergson","SAINT ETIENNE","42000","FR","loire.menager.service@wanadoo.fr","","","","0","0","1"
"i1067","SIBRA ELECTRO DEPANNAGE","53 rue Charles de Gaulle","SAINT-ETIENNE","42000","FR","sibraelectrodepannage@wanadoo.fr","","","","0","0","1"
"i1068","TECHNICIEN 42 MENAGER","34 rue du 11 Novembre","SAINT-ETIENNE","42100","FR","technicien42menager@wanadoo.fr","","","","0","0","1"
"i1069","DEPANNERIE ROANNE","150 rue Mulsant","ROANNE","42300","FR","depannerie@wanadoo.fr","","","","0","0","1"
"i1070","A.B.P.M.","40 Av. Pasteur","L'HORME","42152","FR","abpm.electromenager@gmail.com","","","","0","0","1"
"i1071","MULTI-SERVICE","26 rue du Collège","LE PUY","43000","FR","Jean-paul.brun4@wanadoo.fr","","","","0","0","1"
"i1072","C.S.A. OUEST","C.Cial des Thébaudières","SAINT-HERBLAIN","44800","FR","csa.ouest@wanadoo.fr","","","","0","0","1"
"i1073","DEPANN' + ET SERVICES","85 Av. de la République","ST NAZAIRE","44600","FR","depann.plus@wanadoo.fr","","","","0","0","1"
"i1074","SUD LOIRE MENAGER","37 Bd Victor Hugo","NANTES","44200","FR","sud.loire.menager@9business.fr","","","","0","0","1"
"i1075","A.C.D.E.","Rue du Gal Eisenhower - BP 153","CHATEAUBRIANT","44110","FR","acde.lechene@wanadoo.fr","","","","0","0","1"
"i1076","ROUSSEAU SERVICE","90 Rte de Sandillon","ST JEAN LE BLANC","45650","FR","rs-technique@wanadoo.fr","","","","0","0","1"
"i1077","CENTRAL PIECES MENAGER","120 Bd de Chateaudun","ORLEANS","45000","FR","c-p-m@wanadoo.fr","","","","0","0","1"
"i1078","Ets MOMMEJAC","27 Bd Carnot","SAINT CERE","46400","FR","serge.mommejac@wanadoo.fr","","","","0","0","1"
"i1079","AGEN CENTRE ELECTROMENAGER","9 rue de la Poste - ZAC de Rigoulet","BOE","47550","FR","ace.agen@orange.fr","","","","0","0","1"
"i1080","MARMANDE CENTRE ELECTROMENAGER","Avenue Hubert Ruffe - RN 113","MARMANDE","47200","FR","mce47200@gmail.com","","","","0","0","1"
"i1081","MATER","6 rue du Chaptal","MENDE","48000","FR","mater48@wanadoo.fr","","","","0","0","1"
"i1082","SN SIDEM","22 Bd Gaston Birgé","ANGERS","49100","FR","sidemangers@orange.fr","","","","0","0","1"
"i1083","CHARRIER ELECTROMENAGER","33 Av de la Tessoualle","CHOLET","49300","FR","csa.charrier.cholet@wanadoo.fr","","","","0","0","1"
"i1084","ECLAIR DEPANNAGE","41 rue du Mail","ANGERS","49000","FR","ecladep@wanadoo.fr","","","","0","0","1"
"i1085","TOP DEPANN'","10 Bd Alsace Lorraine","AGNEAUX","50180","FR","top.depann@cegetel.net","","","","0","0","1"
"i1086","A.C.R.","27 Av. Foch","EPERNAY","51200","FR","","","","","0","0","1"
"i1087","SAV EUROPE","9 Place J.Moulin","REIMS","51100","FR","sav.europe@wanadoo.fr","","","","0","0","1"
"i1088","A.T.R.","3 rue Ampère","CHALONS EN CHAMPAGNE","51000","FR","atr.chalons@wanadoo.fr","","","","0","0","1"
"i1089","ATELIER ELECTRO MENAGER","18 rue Pierre Maître","REIMS","51100","FR","atelierhatat@aol.com","","","","0","0","1"
"i1090","SEM","ZA Ch.de la Vacquerie","BETTANCOURT / FERREE","52100","FR","sarl.sem@wanadoo.fr","","","","0","0","1"
"i1091","SARL DEP TEL","40 bis Av Général Leclerc","CHAUMONT","52000","FR","deptel@orange.fr","","","","0","0","1"
"i1092","ELECTRO MENAGER SERVICE","7 rue Albert Thomas","LAVAL","53000","FR","electro.menager.service@wanadoo.fr","","","","0","0","1"
"i1093","DS MAYENNE","181 rue du Terras - ZA du Terras","MAYENNE","53100","FR","ds.mayenne@orange.fr","","","","0","0","1"
"i1094","C.J. SERVICE","ZI de Mexy - Pole Artisanale - Cellule 2","MEXY","54135","FR","cjservice@wanadoo.fr","","","","0","0","1"
"i1095","REPAR 2000","14 rue de l'Armée Patton","NANCY","54000","FR","repar-2000@wanadoo.fr","","","","0","0","1"
"i1096","DEPANNAGE SERVICE JUHEL","15 rue des 4 Frères Créach","VANNES","56000","FR","Etsjuheletfils@wanadoo.fr","","","","0","0","1"
"i1097","CENTRE SERVICE AGREE","33 rue John Fitzgerald Kennedy","MONTIGNY-LES-METZ","57950","FR","centre.service.agree@bbox.fr","","","","0","0","1"
"i1098","DEP LOR","21 rue Foch","CLOUANGE","57185","FR","deplor@orange.fr","","","","0","0","1"
"i1099","ETS SIBILLE R.","2 Place de la Vieille Porte","THIONVILLE","57100","FR","sibille.rem@wanadoo.fr","","","","0","0","1"
"i1100","REM SERVICE","4 Quai Paul Wiltzer","METZ","57000","FR","contact@remservices.fr","","","","0","0","1"
"i1101","S.N.C MAT","6bis Fg de la Baratte","NEVERS","58000","FR","matnevers@wanadoo.fr","","","","0","0","1"
"i1102","ATOM","ZAC les Pierres Blanches62 rue Louis Petit","DENAIN","59220","FR","sav@atom-sa.fr","","","","0","0","1"
"i1103","ATOM MISTER PIECES","97 rue H. Durre","RAISMES","59590","FR","atom.mp@wanadoo.fr","","","","0","0","1"
"i1104","MISTER PIECES","57 rue du 145ème R.I.","MAUBEUGE","59600","FR","mister-m@wanadoo.fr","","","","0","0","1"
"i1105","ATOM","345 Bd Gréguet - C.C. Vauban","DOUAI","59500","FR","atomdo@wanadoo.fr","","","","0","0","1"
"i1106","DUMEY SERVICES","3 rue Paul Machy","DUNKERQUE","59240","FR","dumey.service@wanadoo.fr","","","","0","0","1"
"i1107","TELE VIDEO SERVICE","401 Rte de Beaumont","CHAMBLY","60230","FR","mariehelenetvs@wanadoo.fr","","","","0","0","1"
"i1108","DEPAN' SERVICE","ZA de la Minière","FLERS","61100","FR","depan.service@wanadoo.fr","","","","0","0","1"
"i1109","P.A.M SERVICE","3 et 5 rue du Boulevard","ALENCON","61000","FR","pamservice@wanadoo.fr","","","","0","0","1"
"i1110","DEPANNAGE SERVICE","14 rue Claude Bernard","ALENCON","61000","FR","depannage-service@wanadoo.fr","","","","0","0","1"
"i1111","Ets LECLERCQ","42 rue des 3 visages","ARRAS","62000","FR","sarl.leclercq@wanadoo.fr","","","","0","0","1"
"i1112","MAILLET MENAGER","49 Bd de Clocheville","BOULOGNE / MER","62200","FR","clinique.electromenager@fr.oleane.com","","","","0","0","1"
"i1113","GERARD PARANT ADM","29 et 33 rue Sainte Claire","CLERMONT-FERRAND","63000","FR","parant.gerard@orange.fr","","","","0","0","1"
"i1114","BEARN SERVICE MENAGER","19 rue Palassou","PAU","64000","FR","b.s.m@wanadoo.fr","","","","0","0","1"
"i1115","SAVE'ME","4 rue d'Industrie - Zone de Pontots","ANGLET","64600","FR","contact@saveme.fr","","","","0","0","1"
"i1116","B.M.S.","4 Bd Pierre Renaudet","TARBES","65000","FR","bms4@wanadoo.fr","","","","0","0","1"
"i1117","E.M.R. CLINIQUE DU MINI MENAGER","11 rue Desaix","MUNDOLSHEIM","67450","FR","emr-int@wanadoo.fr","","","","0","0","1"
"i1118","DIBLING  SERVICE","4 rue Ettore Bugatti","ECKBOLSHEIM","67201","FR","dibling@club-internet.fr","","","","0","0","1"
"i1119","REPARELEC","1 Quai St Jean","STRASBOURG","67000","FR","reparelec@wanadoo.fr","","","","0","0","1"
"i1120","CLINIQUE ROBOT MENAGER","4 Av. du Général De Gaulle","COLMAR","68000","FR","crmcolmar@free.fr","","","","0","0","1"
"i1121","MENAGER SERVICE Sarl","163 Av. A. Briand","MULHOUSE","68200","FR","menagerservices@wanadoo.fr","","","","0","0","1"
"i1122","ETS CAMPOY","44 rue du Lieutenant Colonel Prévost","LYON","69006","FR","campoy@free.fr","","","","0","0","1"
"i1123","Entreprise DD TECH","38 Bd Edouard Herriot","ST PRIEST","69800","FR","dd.tech@free.fr","","","","0","0","1"
"i1124","DEPANNERIE BEL - ADB","404 Bd Louis Blanc","VILLEFRANCHE","69400","FR","depanneriebeladb@bbox.fr","","","","0","0","1"
"i1125","RAPID ELECTRO","6 rue des Tanneurs","VESOUL","70000","FR","rapidvesoul@free.fr","","","","0","0","1"
"i1126","BOURGOGNE PIECES MENAGER","26 rue au Fèvres","CHALON S/ SAONE","71100","FR","boutique@bourgognepiecesmenager.com","","","","0","0","1"
"i1127","CEAT ELECTRONIQUE","8 rue de la Guerlande","CHATENOY LE ROYAL","71880","FR","contact_chatenoy@ceat-electronique.fr","","","","0","0","1"
"i1128","GP DEPANNAGE","85 - 87 Av de la Liberation","LE MANS","72000","FR","gondet.csa.gp@orange.fr","","","","0","0","1"
"i1129","CLINIQUE MENAGER","C.Cial GALION","BASSENS (CHAMBERY)","73000","FR","clinique.menager73@wanadoo.fr","","","","0","0","1"
"i1130","Accessoire Ménager Service","25 rue Jean Jaurès","ALBERTVILLE","73200","FR","contact@ams.9pass.net","","","","0","0","1"
"i1131","B.D.R.","6 rue de la Cité","ANNECY","74000","FR","jr.bdr@free.fr","","","","0","0","1"
"i1132","SALLANCHES ELECTRO MENAGER","120 rue du Mont Blanc","SALLANCHES","74700","FR","jlsoubeyrand@wanadoo.fr","","","","0","0","1"
"i1133","SEREL","22 rue Camille Desmoulins","PARIS","75011","FR","serelili@clubinternet.fr","","","","0","0","1"
"i1134","CLINIC PETIT ELECTROMENAGER","32 rue Louis Braille","PARIS","75012","FR","alaincpem@noos.fr","","","","0","0","1"
"i1135","ASPI CLINIC","43 rue du Colisée","PARIS","75008","FR","aspi-clinic@orange.fr","","","","0","0","1"
"i1136","COMPTOIR DU MENAGER","7 place Jacques Marette","PARIS","75015","FR","cdmnet@noos.fr","","","","0","0","1"
"i1137","ACOL ELECTRONIC / E.M.A.","138 rue Lafayette","PARIS","75010","FR","acolsav@yahoo.fr","","","","0","0","1"
"i1138","VILMA","72/74 rue du Surmelin","PARIS","75020","FR","service.seb@vilma.fr","","","","0","0","1"
"i1139","ETS MARION","163 rue Maréchal Joffre","LE HAVRE","76600","FR","sarlmarion@wanadoo.fr","","","","0","0","1"
"i1140","PAM NORMANDIE","8 rue Malouet","ROUEN","76000","FR","pam.normandie@wanadoo.fr","","","","0","0","1"
"i1141","SOS ASPIRATEUR","1 Av. du CEP","POISSY","78300","FR","sosaspirateur@orange.fr","","","","0","0","1"
"i1142","Ets ROUGE","50 rte du Vésinet","CHATOU","78400","FR","olivier.rambaud5@wanadoo.fr","","","","0","0","1"
"i1143","T.M.I. 78","CC Le Sémaphore - 45 RN 10","COIGNERES","78310","FR","tmi-78@wanadoo.fr","","","","0","0","1"
"i1144","ASSISTANCE  DEPANNAGE MAINTENANCE ELECTRONIQUE","12 C rue Jules Siegfried","NIORT","79000","FR","admetec@yahoo.fr","","","","0","0","1"
"i1145","FLASH DEPANNAGE","133 rue Saint Honoré","AMIENS","80000","FR","xavier.denamps@orange.fr","","","","0","0","1"
"i1146","TARN MENAGER SERVICE","26 rue de la Sabaterie","CASTRES","81100","FR","sarltms@wanadoo.fr","","","","0","0","1"
"i1147","TARN MENAGER SERVICE","32 rue Edouard Bardey","MAZAMET","81200","FR","sarltms@wanadoo.fr","","","","0","0","1"
"i1148","INTER DEPANNAGE","17 Bd de Valmy","ALBI","81000","FR","interdepannage@wanadoo.fr","","","","0","0","1"
"i1149","INGRES ELECTROPOLE","1468 Av de Fonneuve","MONTAUBAN","82000","FR","ingres.electropole@wanadoo.fr","","","","0","0","1"
"i1150","CLINIQUE MENAGER","622 avenue de l'Université","LA VALETTE DU VAR","83160","FR","pymaury@cliniquemenager.com","","","","0","0","1"
"i1151","MENAGER LAMARTINE","126 Place Lamartine","SAINT-RAPHAEL","83700","FR","m.menager_lamartine@libertysurf.fr","","","","0","0","1"
"i1152","SERVICE MENAGER","25 Square Etienne Gueirard","LA SEYNE SUR MER","83500","FR","service-menager@wanadoo.fr","","","","0","0","1"
"i1153","IDEM 83","13 rue Marceau","COGOLIN","83310","FR","idem-83@orange.fr","","","","0","0","1"
"i1154","SERVICE DEPANNAGE ST CYR","Rte Nle 559 Cap ST-Cyr","ST CYR- SUR-MER","83270","FR","sdsc@wanadoo.fr","","","","0","0","1"
"i1155","SARL D. VERNET","1480 Av de l'Amandier","AVIGNON","84000","FR","contact@dvernet.com","","","","0","0","1"
"i1156","VDS MENAGER","2 Av. de Provence - C.C.","MONTMORILLON","86500","FR","drs.antigny@wanadoo.fr","","","","0","0","1"
"i1157","ATELIER DU MENAGER","7 rue Denis Papin","POITIERS","86000","FR","brun.sarah@bbox.fr","","","","0","0","1"
"i1158","BAUM TECHNIC","10 Bd de la Cité","LIMOGES","87000","FR","baumtechnic@wanadoo.fr","","","","0","0","1"
"i1159","ANTENNES SERVICES","ZA D'Hellieule - 2 rue de L'Egalité","SAINT DIE","88100","FR","antennes.services@wanadoo.fr","","","","0","0","1"
"i1160","RAPID ELECTRO","20 rue du Canton","REMIREMONT","88200","FR","rapidelectro@wanadoo.fr","","","","0","0","1"
"i1161","MINI MENAGER SERVICE","56 rue du Fort","GOLBEY","88190","FR","minimenager@wanadoo.fr","","","","0","0","1"
"i1162","G.S. GORZYCA","5 rue Houbre","BELFORT","90000","FR","tgorczyca@cegetel.net","","","","0","0","1"
"i1163","INTER SUD DEPANNAGES","17 rue de Montessuy","JUVISY SUR ORGE","91260","FR","inter-sud-depannages@wanadoo.fr","","","","0","0","1"
"i1164","ANRH","37 avenue des Grenots","ETAMPES","91150","FR","gac-etampes@anrh.fr","","","","0","0","1"
"i1165","AUTOTECHNIE","70 bis rue du Dome","BOULOGNE BILLANCOURT","92100","FR","ets.levert@laposte.net","","","","0","0","1"
"i1166","AR DEPANNAGE","2 avenue de Fumel","VILLENEUVE SUR LOT","47300","FR","depannage.ar@sfr.fr","","","","0","0","1"
"i1167","CENTRE TECHNIQUE ELECTROMENAGER ROCHELAIS","21 rue Maurice Ravel","LA ROCHELLE","17000","FR","cter17@wanadoo.fr","","","","0","0","1"
"i1168","TOP PIECES MENAGER","13 avenue de la République - Angle 1 rue de l'Aqueduc","MONTLUCON","03100","FR","jpak@orange.fr","","","","0","0","1"
"i1169","EURL PICQ","750 avenue du Parc des Expositions","LA TESTE-DE-BUCH","33260","FR","sav.eurl.picq@orange.fr","","","","0","0","1"
"i1170","ELECTRO DEPANNAGE MENAGER","8 avenue du Palais des Expositions","PERPIGNAN","66000","FR","savedm66@gmail.com","","","","0","0","1"
"i1171","SERVERO SARL","Route de Lattes - Lotissement : Les Coteaux de St Roch","SAINT JEAN DE VEDAS","34430","FR","serveroatelier@gmail.com","","","","0","0","1"
"i1172","A3A - HYTEC","23 rue Olympe de Gouges","MIGENNES","89400","FR","depan.hytec@sfr.fr","","","","0","0","1"
"i1173","ATLANTIC'DEPAN ELECTROMENAGER","10 rue Chapelet","BIARRITZ","64200","FR","atlantic.depan@orange.fr","","","","0","0","1"
"i1174","MINI MENAGER SERVICE","56 rue du Fort","GOLBEY","88190","FR","minimenager@wanadoo.fr","","","","0","0","1"
"i1175","M.S.H. MENAGER","43 route de Beaune","SAVIGNY LES BEAUNE","21420","FR","mshmenager@orange.fr","","","","0","0","1"
"i1176","CENTRE SERVICE DEPANNAGES","9 Bd du Bicentenaire / ZAC de Champcourt","CUSSET","03300","FR","csd.emenager@wanadoo.fr","","","","0","0","1"
"i1178","L'ATELIER DE LA MENAGERE","28 rue des Tuileries","PERPIGNAN","66000","FR","atelierdelamenagere@orange.fr","","","","0","0","1"
"i1180","SODIDEM","Route de Marseille - Impasse La Lauze","AIGLUN","04510","FR","sodidem04@orange.fr","","","","0","0","1"
"i1181","AD SAV","53 avenue Maréchal Foch","BRIVE LA GAILLARDE","19100","FR","brive.adtn@libertysurf.fr","","","","0","0","1"
"i1182","DEPANN'MENAGER SERVICE","81 avenue de St Etienne- ZI des Granges","MONTBRISON","42600","FR","dms.montbrison42@gmail.com","","","","0","0","1"
"i1183","D2C","Centre commercial Intermarché RD17","SAINT ROMAIN EN VIENNOIS","84110","FR","contact@centreservice.fr","","","","0","0","1"
"i1184","LE COMPTOIR DU SAV","Ave de la Bourriette - Zone du Chandelet","PAMIERS","09100","FR","lecomptoirdusav09@orange.fr","","","","0","0","1"
"i1185","CELTIC PEM","27 rue des Antilles","SAINT MALO","35400","FR","celtic.distrib@wanadoo.fr","","","","0","0","1"
"i1186","ACCESSOIRES PIECES MENAGERS","8 chemin des genêts - Centre Secondo","PORTET SUR GARONNE","31120","FR","apm-31@hotmail.fr","","","","0","0","1"
"i1187","SARL APM-MANCON","24 rue Charles Bourseul  - ZAC de Bell","LA ROCHE SUR YON","85000","FR","apm2@wanadoo.fr","","","","0","0","1"
"i1188","DEPANNAGE PETIT MENAGER MACONNAIS  DP2M","68 rue de Strasbourg","MACON","71000","FR","boutique.dp2m@gmail.com","","","","0","0","1"
"i1189","DEPAN'MENAGER SERVICE","120 Route d'Espagne","PORTET SUR GARONNE","31120","FR","scop.dms@free.fr","","","","0","0","1"
"i1190","LB DEPANNAGE","42 rue du Rétuy","VIOLAINES","62138","FR","agence@lbdepannage.fr","","","","0","0","1"
"i1191","DAVOINE SERVICE","62,bd Robert Schuman","NANTES","44300","FR","davoineservice@wanadoo.fr","","","","0","0","1"
"i1192","DPEM CALAIS","22 rue Française","CALAIS","62100","FR","dpem.calais@bbox.fr","","","","0","0","1"
"i1193","J.E.M.S.","1 rue en Machotte","JOUY AUX ARCHES","57130","FR","manujems@gmail.com","","","","0","0","1"
"i1194","S.A.V. 16","7 ter rue de la Libération","L'ISLE D'ESPAGNAC","16340","FR","sav16@wanadoo.fr","","","","0","0","1"
"i1195","BOUTIN ELECTRONIC","89 avenue du Truc","MERIGNAC","33700","FR","boutinelectronic@laposte.net","","","","0","0","1"
"i1196","DEP 14","17 rue Gaston Lamy","CAEN","14000","FR","dep14@wanadoo.fr","","","","0","0","1"
"i1197","AGENCE DIAMAD","63 Bd du Jardin des Plantes","DRAGUIGNAN","83300","FR","a.c.diamad@wanadoo.fr","","","","0","0","1"
"i1198","A.T.R. LIMOUSIN","5 rue des Fourneries - Zone Nord Limoges Buxerolle","couzeix","87270","FR","interventions@atr-limousin.com","","","","0","0","1"
"i1199","Ets DUPUIS","29 rue du Professeur Testut","BERGERAC","24100","FR","magasin.lefevre@gmail.com","","","","0","0","1"
"i1200","ATOM MISTER PIECES","103 rue de Vermand","SAINT QUENTIN","02100","FR","misterq@wanadoo.fr","","","","0","0","1"
"i1201","ROBOT SERVICE MENAGER","7 rue Emile Zola","MONDEVILLE","14120","FR","robotservicemenager@orange.fr","","","","0","0","1"
"i1202","LA CLINIQUE DU PETIT MENAGER","173 Ave Pierre Semard","CAHORS","46000","FR","cliniquedupetitmenager@wanadoo.fr","","","","0","0","1"
"i1203","ADS Atelier Dépannage Salardais","5 ave Edmond Rostand","SARLAT LA CANEDA","24200","FR","sarl-ads@wanadoo.fr","","","","0","0","1"
"i1204","FRANCE SAV 76","ZA 3 Les Portes de l'Ouest - 10 rue Albert Einstein","SAINT JEAN DU CARDONNAY","76150","FR","francesav76@orange.fr","","","","0","0","1"
"i1205","SOLUTION DEPANNAGE","3 rue du 8 Mai","ISSOIRE","63500","FR","solution.depannage@free.fr","","","","0","0","1"
"i1206","CLINIQUE DU PETIT MENAGER SARL CHARLES","37 rue Pont du Gat","VALENCE","26000","FR","cliniquepetitmenager@orange.fr","","","","0","0","1"
"i1207","DEPANNERIE BRIGNAIS","152 Ave du Général de Gaulle","BRIGNAIS","69530","FR","depannerie.brignais@gmail.com","","","","0","0","1"
"i1208","MENAGER 90","82 avenue Jean Jaures","BELFORT","90000","FR","menager90@bbox.fr","","","","0","0","1"
"i1209","FLASH DEPANNAGE","2342 avenue Robert Brun - Lieu dit Farlède","LA SEYNE SUR MER","83500","FR","sav@flashdepannage.com","","","","0","0","1"
"i1210","DEPANNING","57 bis rue Victor Laloux - ZAC des Brossereaux","MONTLOUIS SUR LOIRE","37270","FR","contact@depanning.fr","","","","0","0","1"
"i1211","ABC REPARATIONS","Esplanade P.A. Giraud - Immeuble le Kiosque","L'ARGENTIERE LA BESSEE","05120","FR","abcreparations@outlook.fr","","","","0","0","1"
"i1212","CENTRE SERVICE REPARATION","77 Av Marceau Hamechere","MONTAUBAN","82000","FR","","","","","0","0","1"
"136864","Fnac Paris - Ternes","26-30, avenue des Ternes","Paris","75017","FR","","","","Du lundi au samedi de 10:00 à 19:30","1","1","0"
"136865","Fnac Parly 2","Centre commercial Parly 2","Le Chesnay","78150","FR","","","","Du lundi au samedi de 10:00 à 21:00","1","1","0"
"136843","Fnac Lyon Bellecour","85, rue de la République","Lyon","69002","FR","","","","Du lundi au samedi de 10:00 à 19:30","1","1","0"
"136886","Fnac Vélizy","Centre commercial Vélizy 2","Vélizy-Villacoublay","78140","FR","","","","Du lundi au samedi de 10:00 à 19:30","1","1","0"
"474534","Fnac Paris Montparnasse","136 rue de Rennes","Paris","75006","FR","","","","Du lundi au samedi de 10:00 à 20:00","1","1","0"
"54158","Galeries Lafayette BRON","209-221, Boulevard Pinel","BRON","69671","FR","","","","Du lundi au samedi de 09:00 à 20:00","1","1","0"
"i1215","Galeries Lafayette Nice Cap 3000","Avenue Eugène Donadeï","Saint-Laurent-du-Var","06700","FR","","","","Du lundi au samedi de 10:00 à 21:00","1","1","0"
"54160","Galeries Lafayette Paris Haussmann","40, bd Haussmann","PARIS","75009","FR","","","","Du lundi au samedi de 09:30 à 20:30","1","1","0"
"i1216","Boulanger Paris Opera","30 Boulevard des Capucines","PARIS","75009","FR","","","","Du lundi au samedi de 09:30 à 20:00","1","1","0"
"474569","Le Bon Marché","24, rue de Sèvres","PARIS","75007","FR","","","","Du lundi au samedi de 10:00 à 20:00","1","1","0"
"474523","Darty Marseille - Les Terrasses du Port","9 Quai du LAZARET","Marseille","13002","FR","","","","Du lundi au samedi de 10:00 à 20:00","1","1","0"
"66550","DARTY LA PART DIEU","Centre Commercial La Part Dieu - 3ème niveau","Lyon","69003","FR","","","","Du lundi au samedi de 09:30 à 20:00","1","1","0"
"i1213","BHV PARIS","52 Rue de Rivoli","Paris","75004","FR","","","","Du lundi au samedi de 09:30 à 20:00","1","1","0"
"3939","BHV PARLY 2","Centre Commercial Parly 2","Le Chesnay","78158","FR","","","","Du lundi au samedi de 10:00 à 21:00","1","1","0"
"3942","BHV LYON LA PART DIEU","Rue du Docteur Bouchut","Lyon","69001","FR","","","","Du lundi au samedi de 10:00 à 21:00","1","1","0"
"3943","BBHV LIMONEST","Route Nationale 6","Dardilly","69578","FR","","","","Du lundi au samedi de 09:30 à 20:00","1","1","0"
"i1217","CENTRE COMMERCIAL MARSEILLE TERRASSES DU PORT","9 Quai du Lazaret","Marseille","13002","FR","","","","Du lundi au Samedi de 10:00 à 20:00","0","1","0"
"i1218","CENTRE COMMERCIAL VELIZY 2","2 Avenue de l'Europe","Vélizy-Villacoublay","78140","FR","","","","Du lundi au Samedi de 10:00 à 22:00","0","1","0"
"i1219","CENTRE COMMERCIAL PARLY 2","2 Avenue Charles de Gaulle","Le Chesnay","78150","FR","","","","Du lundi au Samedi de 10:00 à 21:00","0","1","0"
"i1220","CENTRE COMMERCIAL LES 4 TEMPS","15 Tunnel de Nanterre-La Défense","Paris La Défense","92092","FR","","","","Du lundi au Samedi de 10:00 à 20:00","0","1","0"
"i1221","CENTRE COMMERCIAL RENNES ALMA","5 Rue du Bosphore","Rennes","35200","FR","","","","Du lundi au Samedi de 08:00 à 23:30","0","1","0"
"i1222","CENTRE COMMERCIAL LYON PART DIEU","17 Rue du Dr Bouchut","Lyon","69003","FR","","","","Du lundi au Samedi de 09:30 à 20:00","0","1","0"
